services,store_url,store_name,stradd,city,state,lat,long
Tobaco,https://www.familydollar.com/locations/ga/abbeville/30717/,FAMILY DOLLAR #10717,121 Main Street E,Abbeville,GA,31.9919777,-83.30597313
Adult Beverage,https://www.familydollar.com/locations/ga/abbeville/30717/,FAMILY DOLLAR #10717,121 Main Street E,Abbeville,GA,31.9919777,-83.30597313
Propane,https://www.familydollar.com/locations/ga/abbeville/30717/,FAMILY DOLLAR #10717,121 Main Street E,Abbeville,GA,31.9919777,-83.30597313
Tobaco,https://www.familydollar.com/locations/ga/acworth/30480/,FAMILY DOLLAR #10480,3454 Baker Road,Acworth,GA,34.0762,-84.6506
Adult Beverage,https://www.familydollar.com/locations/ga/acworth/30480/,FAMILY DOLLAR #10480,3454 Baker Road,Acworth,GA,34.0762,-84.6506
Tobaco,https://www.familydollar.com/locations/ga/acworth/25651/,FAMILY DOLLAR #5651,5540 Bells Ferry Rd,Acworth,GA,34.086501,-84.573935
Tobaco,https://www.familydollar.com/locations/ga/adairsville/24155/,FAMILY DOLLAR #4155,7421 Adairsville Hwy,Adairsville,GA,34.378481,-84.93183
Tobaco,https://www.familydollar.com/locations/ga/adel/20331/,FAMILY DOLLAR #331,507 W 4th St,Adel,GA,31.134967,-83.429704
Adult Beverage,https://www.familydollar.com/locations/ga/adel/20331/,FAMILY DOLLAR #331,507 W 4th St,Adel,GA,31.134967,-83.429704
Propane,https://www.familydollar.com/locations/ga/adel/20331/,FAMILY DOLLAR #331,507 W 4th St,Adel,GA,31.134967,-83.429704
Tobaco,https://www.familydollar.com/locations/ga/albany/30958/,FAMILY DOLLAR #10958,2408 Dawson Road,Albany,GA,31.607714,-84.209513
Adult Beverage,https://www.familydollar.com/locations/ga/albany/30958/,FAMILY DOLLAR #10958,2408 Dawson Road,Albany,GA,31.607714,-84.209513
Propane,https://www.familydollar.com/locations/ga/albany/30958/,FAMILY DOLLAR #10958,2408 Dawson Road,Albany,GA,31.607714,-84.209513
Tobaco,https://www.familydollar.com/locations/ga/albany/31047/,FAMILY DOLLAR #11047,1000 N Slappey Blvd.,Albany,GA,31.59045378,-84.17576764
Adult Beverage,https://www.familydollar.com/locations/ga/albany/31047/,FAMILY DOLLAR #11047,1000 N Slappey Blvd.,Albany,GA,31.59045378,-84.17576764
Tobaco,https://www.familydollar.com/locations/ga/albany/31395/,FAMILY DOLLAR #11395,3907 Gillionville Road,Albany,GA,31.58640993,-84.25182338
Adult Beverage,https://www.familydollar.com/locations/ga/albany/31395/,FAMILY DOLLAR #11395,3907 Gillionville Road,Albany,GA,31.58640993,-84.25182338
Tobaco,https://www.familydollar.com/locations/ga/albany/31463/,FAMILY DOLLAR #11463,1505 N. Maple Street,Albany,GA,31.59683897,-84.11649918
Adult Beverage,https://www.familydollar.com/locations/ga/albany/31463/,FAMILY DOLLAR #11463,1505 N. Maple Street,Albany,GA,31.59683897,-84.11649918
Tobaco,https://www.familydollar.com/locations/ga/albany/20339/,FAMILY DOLLAR #339,211 S Slappy Blvd,Albany,GA,31.574047,-84.176739
Adult Beverage,https://www.familydollar.com/locations/ga/albany/20339/,FAMILY DOLLAR #339,211 S Slappy Blvd,Albany,GA,31.574047,-84.176739
Tobaco,https://www.familydollar.com/locations/ga/albany/20427/,FAMILY DOLLAR #427,301 E. Oglethorpe Blvd,Albany,GA,31.57592411,-84.14194818
Adult Beverage,https://www.familydollar.com/locations/ga/albany/20427/,FAMILY DOLLAR #427,301 E. Oglethorpe Blvd,Albany,GA,31.57592411,-84.14194818
Tobaco,https://www.familydollar.com/locations/ga/albany/24873/,FAMILY DOLLAR #4873,110 Cordele Rd,Albany,GA,31.576856,-84.090097
Tobaco,https://www.familydollar.com/locations/ga/albany/26111/,FAMILY DOLLAR #6111,1031 W Gordon Ave,Albany,GA,31.567242,-84.174229
Tobaco,https://www.familydollar.com/locations/ga/albany/26485/,FAMILY DOLLAR #6485,1502 Radium Springs Rd,Albany,GA,31.551306,-84.136419
Adult Beverage,https://www.familydollar.com/locations/ga/albany/26485/,FAMILY DOLLAR #6485,1502 Radium Springs Rd,Albany,GA,31.551306,-84.136419
Tobaco,https://www.familydollar.com/locations/ga/alma/20700/,FAMILY DOLLAR #700,902 S Pierce St,Alma,GA,31.535329,-82.462947
Adult Beverage,https://www.familydollar.com/locations/ga/alma/20700/,FAMILY DOLLAR #700,902 S Pierce St,Alma,GA,31.535329,-82.462947
Tobaco,https://www.familydollar.com/locations/ga/americus/20236/,FAMILY DOLLAR #236,202 Manhattan St,Americus,GA,32.072215,-84.214979
Tobaco,https://www.familydollar.com/locations/ga/americus/26162/,FAMILY DOLLAR #6162,1202 Martin Luther King Jr. Bl,Americus,GA,32.083776,-84.240019
Adult Beverage,https://www.familydollar.com/locations/ga/americus/26162/,FAMILY DOLLAR #6162,1202 Martin Luther King Jr. Bl,Americus,GA,32.083776,-84.240019
Tobaco,https://www.familydollar.com/locations/ga/athens/20103/,FAMILY DOLLAR #103,335 North Avenue,Athens,GA,33.97496,-83.365301
Adult Beverage,https://www.familydollar.com/locations/ga/athens/20103/,FAMILY DOLLAR #103,335 North Avenue,Athens,GA,33.97496,-83.365301
Propane,https://www.familydollar.com/locations/ga/athens/20103/,FAMILY DOLLAR #103,335 North Avenue,Athens,GA,33.97496,-83.365301
Tobaco,https://www.familydollar.com/locations/ga/athens/31739/,FAMILY DOLLAR #11739,3870 Old Jefferson Road,Athens,GA,33.98938211,-83.42580285
Adult Beverage,https://www.familydollar.com/locations/ga/athens/31739/,FAMILY DOLLAR #11739,3870 Old Jefferson Road,Athens,GA,33.98938211,-83.42580285
Propane,https://www.familydollar.com/locations/ga/athens/31739/,FAMILY DOLLAR #11739,3870 Old Jefferson Road,Athens,GA,33.98938211,-83.42580285
Fresh Produce,https://www.familydollar.com/locations/ga/athens/31739/,FAMILY DOLLAR #11739,3870 Old Jefferson Road,Athens,GA,33.98938211,-83.42580285
Tobaco,https://www.familydollar.com/locations/ga/athens/32036/,FAMILY DOLLAR #12036,995 Winterville Rd,Athens,GA,33.9550048,-83.34404032
Adult Beverage,https://www.familydollar.com/locations/ga/athens/32036/,FAMILY DOLLAR #12036,995 Winterville Rd,Athens,GA,33.9550048,-83.34404032
Tobaco,https://www.familydollar.com/locations/ga/athens/23055/,FAMILY DOLLAR #3055,4060 Lexington Rd,Athens,GA,33.93645,-83.32262
Tobaco,https://www.familydollar.com/locations/ga/atlanta/30676/,FAMILY DOLLAR #10676,2001 James Jackson Pkwy Nw,Atlanta,GA,33.81051337,-84.47579464
Tobaco,https://www.familydollar.com/locations/ga/atlanta/30677/,FAMILY DOLLAR #10677,4472 Campbellton Road Sw,Atlanta,GA,33.69574463,-84.53451073
Adult Beverage,https://www.familydollar.com/locations/ga/atlanta/30677/,FAMILY DOLLAR #10677,4472 Campbellton Road Sw,Atlanta,GA,33.69574463,-84.53451073
Propane,https://www.familydollar.com/locations/ga/atlanta/30677/,FAMILY DOLLAR #10677,4472 Campbellton Road Sw,Atlanta,GA,33.69574463,-84.53451073
Tobaco,https://www.familydollar.com/locations/ga/atlanta/30761/,FAMILY DOLLAR #10761,226 Ralph David Abernathy Blvd,Atlanta,GA,33.73660892,-84.39558927
Tobaco,https://www.familydollar.com/locations/ga/atlanta/31425/,FAMILY DOLLAR #11425,1723 Lakewood Avenue Se,Atlanta,GA,33.70686408,-84.38051026
Adult Beverage,https://www.familydollar.com/locations/ga/atlanta/31425/,FAMILY DOLLAR #11425,1723 Lakewood Avenue Se,Atlanta,GA,33.70686408,-84.38051026
Propane,https://www.familydollar.com/locations/ga/atlanta/31425/,FAMILY DOLLAR #11425,1723 Lakewood Avenue Se,Atlanta,GA,33.70686408,-84.38051026
Tobaco,https://www.familydollar.com/locations/ga/atlanta/31891/,FAMILY DOLLAR #11891,2579 Gresham Road Se,Atlanta,GA,33.7130451,-84.31084609
Adult Beverage,https://www.familydollar.com/locations/ga/atlanta/31891/,FAMILY DOLLAR #11891,2579 Gresham Road Se,Atlanta,GA,33.7130451,-84.31084609
Tobaco,https://www.familydollar.com/locations/ga/atlanta/31892/,FAMILY DOLLAR #11892,2925 Headland Dr.,Atlanta,GA,33.69054124,-84.48409391
Tobaco,https://www.familydollar.com/locations/ga/atlanta/32070/,FAMILY DOLLAR #12070,1932 Metropolitan Pkwy,Atlanta,GA,33.7016258,-84.40765146
Adult Beverage,https://www.familydollar.com/locations/ga/atlanta/32070/,FAMILY DOLLAR #12070,1932 Metropolitan Pkwy,Atlanta,GA,33.7016258,-84.40765146
Tobaco,https://www.familydollar.com/locations/ga/atlanta/32123/,FAMILY DOLLAR #12123,1531 Campbellton Rd,Atlanta,GA,33.71335661,-84.43860282
Adult Beverage,https://www.familydollar.com/locations/ga/atlanta/32123/,FAMILY DOLLAR #12123,1531 Campbellton Rd,Atlanta,GA,33.71335661,-84.43860282
Tobaco,https://www.familydollar.com/locations/ga/atlanta/21469/,FAMILY DOLLAR #1469,1655 Memorial Drive Se,Atlanta,GA,33.747149,-84.333649
Adult Beverage,https://www.familydollar.com/locations/ga/atlanta/21469/,FAMILY DOLLAR #1469,1655 Memorial Drive Se,Atlanta,GA,33.747149,-84.333649
Propane,https://www.familydollar.com/locations/ga/atlanta/21469/,FAMILY DOLLAR #1469,1655 Memorial Drive Se,Atlanta,GA,33.747149,-84.333649
Tobaco,https://www.familydollar.com/locations/ga/atlanta/21728/,FAMILY DOLLAR #1728,1165 Ralph D Abernathy Blvd Sw,Atlanta,GA,33.739094,-84.425777
Tobaco,https://www.familydollar.com/locations/ga/atlanta/20231/,FAMILY DOLLAR #231,5403 Old National Highway,Atlanta,GA,33.60863706,-84.47196112
Adult Beverage,https://www.familydollar.com/locations/ga/atlanta/20231/,FAMILY DOLLAR #231,5403 Old National Highway,Atlanta,GA,33.60863706,-84.47196112
Propane,https://www.familydollar.com/locations/ga/atlanta/20231/,FAMILY DOLLAR #231,5403 Old National Highway,Atlanta,GA,33.60863706,-84.47196112
Tobaco,https://www.familydollar.com/locations/ga/atlanta/22349/,FAMILY DOLLAR #2349,3721b Campbellton Rd Sw,Atlanta,GA,33.6913,-84.510315
Adult Beverage,https://www.familydollar.com/locations/ga/atlanta/22349/,FAMILY DOLLAR #2349,3721b Campbellton Rd Sw,Atlanta,GA,33.6913,-84.510315
Tobaco,https://www.familydollar.com/locations/ga/atlanta/20235/,FAMILY DOLLAR #235,2178 Campbellton Rd Sw,Atlanta,GA,33.705162,-84.459492
Adult Beverage,https://www.familydollar.com/locations/ga/atlanta/20235/,FAMILY DOLLAR #235,2178 Campbellton Rd Sw,Atlanta,GA,33.705162,-84.459492
Tobaco,https://www.familydollar.com/locations/ga/atlanta/22641/,FAMILY DOLLAR #2641,2522 Bouldercrest Rd Se,Atlanta,GA,33.688482,-84.309232
Tobaco,https://www.familydollar.com/locations/ga/atlanta/22678/,FAMILY DOLLAR #2678,5425 Riverdale Rd,Atlanta,GA,33.607316,-84.437716
Tobaco,https://www.familydollar.com/locations/ga/atlanta/24220/,FAMILY DOLLAR #4220,5638 Riverdale Rd,Atlanta,GA,33.601222,-84.427133
Tobaco,https://www.familydollar.com/locations/ga/atlanta/26030/,FAMILY DOLLAR #6030,2045 D L Hollowell Pkwy Nw,Atlanta,GA,33.7774,-84.45228
Tobaco,https://www.familydollar.com/locations/ga/atlanta/26151/,FAMILY DOLLAR #6151,3500 Martin Luther Kg Jr Dr Sw,Atlanta,GA,33.757318,-84.502896
Tobaco,https://www.familydollar.com/locations/ga/atlanta/20634/,FAMILY DOLLAR #634,3050 Martin Luther King Dr,Atlanta,GA,33.749715,-84.486808
Tobaco,https://www.familydollar.com/locations/ga/atlanta/26501/,FAMILY DOLLAR #6501,824 Donald L Hollowell Pkwy Nw,Atlanta,GA,33.772685,-84.414917
Tobaco,https://www.familydollar.com/locations/ga/atlanta/26509/,FAMILY DOLLAR #6509,565 Joseph E. Lowery Blvd. Sw,Atlanta,GA,33.739702,-84.418234
Tobaco,https://www.familydollar.com/locations/ga/atlanta/26611/,FAMILY DOLLAR #6611,"455 North Ave., Northeast",Atlanta,GA,33.770693,-84.372124
Tobaco,https://www.familydollar.com/locations/ga/atlanta/20716/,FAMILY DOLLAR #716,1410 Custer Avenue,Atlanta,GA,33.71881724,-84.34173342
Adult Beverage,https://www.familydollar.com/locations/ga/atlanta/20716/,FAMILY DOLLAR #716,1410 Custer Avenue,Atlanta,GA,33.71881724,-84.34173342
Tobaco,https://www.familydollar.com/locations/ga/atlanta/27189/,FAMILY DOLLAR #7189,1616 Virginia Ave,Atlanta,GA,33.658427,-84.442433
Tobaco,https://www.familydollar.com/locations/ga/atlanta/27253/,FAMILY DOLLAR #7253,2615 Donald Lee Hollowell Park,Atlanta,GA,33.77605595,-84.47191266
Tobaco,https://www.familydollar.com/locations/ga/atlanta/27463/,FAMILY DOLLAR #7463,2021 Flat Shoals Rd. Se,Atlanta,GA,33.725001,-84.321984
Adult Beverage,https://www.familydollar.com/locations/ga/atlanta/27463/,FAMILY DOLLAR #7463,2021 Flat Shoals Rd. Se,Atlanta,GA,33.725001,-84.321984
Propane,https://www.familydollar.com/locations/ga/atlanta/27463/,FAMILY DOLLAR #7463,2021 Flat Shoals Rd. Se,Atlanta,GA,33.725001,-84.321984
Tobaco,https://www.familydollar.com/locations/ga/atlanta/28385/,FAMILY DOLLAR #8385,6385 Old National Hwy,Atlanta,GA,33.581196,-84.472039
Tobaco,https://www.familydollar.com/locations/ga/atlanta/29097/,FAMILY DOLLAR #9097,2324 Cascade Rd.,Atlanta,GA,33.72178793,-84.46437117
Adult Beverage,https://www.familydollar.com/locations/ga/atlanta/29097/,FAMILY DOLLAR #9097,2324 Cascade Rd.,Atlanta,GA,33.72178793,-84.46437117
Tobaco,https://www.familydollar.com/locations/ga/augusta/31528/,FAMILY DOLLAR #11528,3764 Peach Orchard Road,Augusta,GA,33.35721,-82.04394854
Adult Beverage,https://www.familydollar.com/locations/ga/augusta/31528/,FAMILY DOLLAR #11528,3764 Peach Orchard Road,Augusta,GA,33.35721,-82.04394854
Propane,https://www.familydollar.com/locations/ga/augusta/31528/,FAMILY DOLLAR #11528,3764 Peach Orchard Road,Augusta,GA,33.35721,-82.04394854
Fresh Produce,https://www.familydollar.com/locations/ga/augusta/31528/,FAMILY DOLLAR #11528,3764 Peach Orchard Road,Augusta,GA,33.35721,-82.04394854
Tobaco,https://www.familydollar.com/locations/ga/augusta/31533/,FAMILY DOLLAR #11533,3211 Old Mcduffie Road,Augusta,GA,33.43516209,-82.08535318
Adult Beverage,https://www.familydollar.com/locations/ga/augusta/31533/,FAMILY DOLLAR #11533,3211 Old Mcduffie Road,Augusta,GA,33.43516209,-82.08535318
Propane,https://www.familydollar.com/locations/ga/augusta/31533/,FAMILY DOLLAR #11533,3211 Old Mcduffie Road,Augusta,GA,33.43516209,-82.08535318
Tobaco,https://www.familydollar.com/locations/ga/augusta/31567/,FAMILY DOLLAR #11567,1801 Kissingbower Road,Augusta,GA,33.45463887,-82.02213953
Adult Beverage,https://www.familydollar.com/locations/ga/augusta/31567/,FAMILY DOLLAR #11567,1801 Kissingbower Road,Augusta,GA,33.45463887,-82.02213953
Propane,https://www.familydollar.com/locations/ga/augusta/31567/,FAMILY DOLLAR #11567,1801 Kissingbower Road,Augusta,GA,33.45463887,-82.02213953
Tobaco,https://www.familydollar.com/locations/ga/augusta/20139/,FAMILY DOLLAR #139,2625 Deans Bridge Rd #7,Augusta,GA,33.44032,-82.023703
Tobaco,https://www.familydollar.com/locations/ga/augusta/21471/,FAMILY DOLLAR #1471,1991 Broad St,Augusta,GA,33.486466,-81.998371
Adult Beverage,https://www.familydollar.com/locations/ga/augusta/21471/,FAMILY DOLLAR #1471,1991 Broad St,Augusta,GA,33.486466,-81.998371
Tobaco,https://www.familydollar.com/locations/ga/augusta/23008/,FAMILY DOLLAR #3008,3258 Wrightsboro Rd,Augusta,GA,33.467071,-82.065353
Adult Beverage,https://www.familydollar.com/locations/ga/augusta/23008/,FAMILY DOLLAR #3008,3258 Wrightsboro Rd,Augusta,GA,33.467071,-82.065353
Tobaco,https://www.familydollar.com/locations/ga/augusta/23485/,FAMILY DOLLAR #3485,2716 Peach Orchard Rd,Augusta,GA,33.421332,-82.019099
Tobaco,https://www.familydollar.com/locations/ga/augusta/20374/,FAMILY DOLLAR #374,3352 Deans Bridge Road,Augusta,GA,33.418485,-82.078275
Tobaco,https://www.familydollar.com/locations/ga/augusta/23854/,FAMILY DOLLAR #3854,3447 Peach Orchard Rd,Augusta,GA,33.391399,-82.027694
Adult Beverage,https://www.familydollar.com/locations/ga/augusta/23854/,FAMILY DOLLAR #3854,3447 Peach Orchard Rd,Augusta,GA,33.391399,-82.027694
Tobaco,https://www.familydollar.com/locations/ga/augusta/24344/,FAMILY DOLLAR #4344,3709 Mike Padgett Highway,Augusta,GA,33.36740142,-81.9970012
Adult Beverage,https://www.familydollar.com/locations/ga/augusta/24344/,FAMILY DOLLAR #4344,3709 Mike Padgett Highway,Augusta,GA,33.36740142,-81.9970012
Propane,https://www.familydollar.com/locations/ga/augusta/24344/,FAMILY DOLLAR #4344,3709 Mike Padgett Highway,Augusta,GA,33.36740142,-81.9970012
Tobaco,https://www.familydollar.com/locations/ga/augusta/24402/,FAMILY DOLLAR #4402,1801 Central Ave,Augusta,GA,33.469295,-82.00172
Tobaco,https://www.familydollar.com/locations/ga/augusta/25438/,FAMILY DOLLAR #5438,825 Laney Walker Blvd,Augusta,GA,33.463838,-81.972245
Adult Beverage,https://www.familydollar.com/locations/ga/augusta/25438/,FAMILY DOLLAR #5438,825 Laney Walker Blvd,Augusta,GA,33.463838,-81.972245
Tobaco,https://www.familydollar.com/locations/ga/augusta/26058/,FAMILY DOLLAR #6058,2310 Milledgeville Rd,Augusta,GA,33.446992,-82.007542
Tobaco,https://www.familydollar.com/locations/ga/augusta/26060/,FAMILY DOLLAR #6060,1713 Walton Way,Augusta,GA,33.475964,-81.995106
Adult Beverage,https://www.familydollar.com/locations/ga/augusta/26060/,FAMILY DOLLAR #6060,1713 Walton Way,Augusta,GA,33.475964,-81.995106
Propane,https://www.familydollar.com/locations/ga/augusta/26060/,FAMILY DOLLAR #6060,1713 Walton Way,Augusta,GA,33.475964,-81.995106
Tobaco,https://www.familydollar.com/locations/ga/augusta/26176/,FAMILY DOLLAR #6176,206 Sand Bar Ferry Rd,Augusta,GA,33.46537,-81.944771
Adult Beverage,https://www.familydollar.com/locations/ga/augusta/26176/,FAMILY DOLLAR #6176,206 Sand Bar Ferry Rd,Augusta,GA,33.46537,-81.944771
Tobaco,https://www.familydollar.com/locations/ga/augusta/28564/,FAMILY DOLLAR #8564,2914 Deans Bridge Road,Augusta,GA,33.43050066,-82.04118787
Adult Beverage,https://www.familydollar.com/locations/ga/augusta/28564/,FAMILY DOLLAR #8564,2914 Deans Bridge Road,Augusta,GA,33.43050066,-82.04118787
Propane,https://www.familydollar.com/locations/ga/augusta/28564/,FAMILY DOLLAR #8564,2914 Deans Bridge Road,Augusta,GA,33.43050066,-82.04118787
Tobaco,https://www.familydollar.com/locations/ga/augusta/29308/,FAMILY DOLLAR #9308,2428 Windsor Spring Road,Augusta,GA,33.397928,-82.052238
Adult Beverage,https://www.familydollar.com/locations/ga/augusta/29308/,FAMILY DOLLAR #9308,2428 Windsor Spring Road,Augusta,GA,33.397928,-82.052238
Tobaco,https://www.familydollar.com/locations/ga/austell/24370/,FAMILY DOLLAR #4370,361 Six Flags Dr,Austell,GA,33.77766,-84.56803
Adult Beverage,https://www.familydollar.com/locations/ga/austell/24370/,FAMILY DOLLAR #4370,361 Six Flags Dr,Austell,GA,33.77766,-84.56803
Propane,https://www.familydollar.com/locations/ga/austell/24370/,FAMILY DOLLAR #4370,361 Six Flags Dr,Austell,GA,33.77766,-84.56803
Tobaco,https://www.familydollar.com/locations/ga/austell/28649/,FAMILY DOLLAR #8649,"1355 East-West Connector, Ste.",Austell,GA,33.856095,-84.593352
Tobaco,https://www.familydollar.com/locations/ga/bainbridge/21132/,FAMILY DOLLAR #1132,303 S Scott St,Bainbridge,GA,30.903384,-84.567447
Adult Beverage,https://www.familydollar.com/locations/ga/bainbridge/21132/,FAMILY DOLLAR #1132,303 S Scott St,Bainbridge,GA,30.903384,-84.567447
Tobaco,https://www.familydollar.com/locations/ga/barnesville/20277/,FAMILY DOLLAR #277,329 College Dr,Barnesville,GA,33.05242248,-84.15426478
Tobaco,https://www.familydollar.com/locations/ga/baxley/20351/,FAMILY DOLLAR #351,143 E Parker St,Baxley,GA,31.778319,-82.346129
Tobaco,https://www.familydollar.com/locations/ga/blackshear/20729/,FAMILY DOLLAR #729,3515 W Highway 84,Blackshear,GA,31.304525,-82.243238
Tobaco,https://www.familydollar.com/locations/ga/blakely/22680/,FAMILY DOLLAR #2680,12246 Columbia St,Blakely,GA,31.373903,-84.93855
Tobaco,https://www.familydollar.com/locations/ga/bowdon/21161/,FAMILY DOLLAR #1161,144 Lovvorn Ave,Bowdon,GA,33.540386,-85.251892
Tobaco,https://www.familydollar.com/locations/ga/brunswick/24826/,FAMILY DOLLAR #4826,4420 Altama Ave,Brunswick,GA,31.192664,-81.482537
Tobaco,https://www.familydollar.com/locations/ga/brunswick/20500/,FAMILY DOLLAR #500,2014 Norwich St,Brunswick,GA,31.157475,-81.493383
Adult Beverage,https://www.familydollar.com/locations/ga/brunswick/20500/,FAMILY DOLLAR #500,2014 Norwich St,Brunswick,GA,31.157475,-81.493383
Tobaco,https://www.familydollar.com/locations/ga/brunswick/27977/,FAMILY DOLLAR #7977,100 Hyde Park Commons,Brunswick,GA,31.142214,-81.586812
Tobaco,https://www.familydollar.com/locations/ga/buena-vista/30476/,FAMILY DOLLAR #10476,114 S Broad Street,Buena Vista,GA,32.316391,-84.518169
Adult Beverage,https://www.familydollar.com/locations/ga/buena-vista/30476/,FAMILY DOLLAR #10476,114 S Broad Street,Buena Vista,GA,32.316391,-84.518169
Propane,https://www.familydollar.com/locations/ga/buena-vista/30476/,FAMILY DOLLAR #10476,114 S Broad Street,Buena Vista,GA,32.316391,-84.518169
Tobaco,https://www.familydollar.com/locations/ga/butler/26059/,FAMILY DOLLAR #6059,215 S Broad St,Butler,GA,32.553602,-84.238526
Adult Beverage,https://www.familydollar.com/locations/ga/butler/26059/,FAMILY DOLLAR #6059,215 S Broad St,Butler,GA,32.553602,-84.238526
Tobaco,https://www.familydollar.com/locations/ga/cairo/20422/,FAMILY DOLLAR #422,131 Martin Luther King Jr Ave,Cairo,GA,30.874933,-84.210355
Tobaco,https://www.familydollar.com/locations/ga/calhoun/20290/,FAMILY DOLLAR #290,815 S Wall St,Calhoun,GA,34.48603,-84.945388
Adult Beverage,https://www.familydollar.com/locations/ga/calhoun/20290/,FAMILY DOLLAR #290,815 S Wall St,Calhoun,GA,34.48603,-84.945388
Tobaco,https://www.familydollar.com/locations/ga/camilla/20348/,FAMILY DOLLAR #348,50 N Scott St,Camilla,GA,31.232781,-84.211605
Tobaco,https://www.familydollar.com/locations/ga/canton/24697/,FAMILY DOLLAR #4697,241 Marietta Rd,Canton,GA,34.23096,-84.49151
Tobaco,https://www.familydollar.com/locations/ga/carnesville/31228/,FAMILY DOLLAR #11228,9250 Lavonia Road,Carnesville,GA,34.36740258,-83.24016892
Adult Beverage,https://www.familydollar.com/locations/ga/carnesville/31228/,FAMILY DOLLAR #11228,9250 Lavonia Road,Carnesville,GA,34.36740258,-83.24016892
Tobaco,https://www.familydollar.com/locations/ga/carrollton/20229/,FAMILY DOLLAR #229,430 N Park St,Carrollton,GA,33.584439,-85.07881
Adult Beverage,https://www.familydollar.com/locations/ga/carrollton/20229/,FAMILY DOLLAR #229,430 N Park St,Carrollton,GA,33.584439,-85.07881
Tobaco,https://www.familydollar.com/locations/ga/carrollton/24899/,FAMILY DOLLAR #4899,515 Bankhead Hwy,Carrollton,GA,33.584932,-85.058665
Tobaco,https://www.familydollar.com/locations/ga/carrollton/28957/,FAMILY DOLLAR #8957,2290 Maple Street,Carrollton,GA,33.560892,-85.115266
Adult Beverage,https://www.familydollar.com/locations/ga/carrollton/28957/,FAMILY DOLLAR #8957,2290 Maple Street,Carrollton,GA,33.560892,-85.115266
Tobaco,https://www.familydollar.com/locations/ga/cedartown/20276/,FAMILY DOLLAR #276,727 S. Main Street,Cedartown,GA,34.00715596,-85.25456006
Adult Beverage,https://www.familydollar.com/locations/ga/cedartown/20276/,FAMILY DOLLAR #276,727 S. Main Street,Cedartown,GA,34.00715596,-85.25456006
Tobaco,https://www.familydollar.com/locations/ga/chamblee/30281/,FAMILY DOLLAR #10281,4949 Buford Hwy.,Chamblee,GA,33.886588,-84.286655
Tobaco,https://www.familydollar.com/locations/ga/chatsworth/20447/,FAMILY DOLLAR #447,500 S 3rd Ave,Chatsworth,GA,34.761633,-84.770543
Adult Beverage,https://www.familydollar.com/locations/ga/chatsworth/20447/,FAMILY DOLLAR #447,500 S 3rd Ave,Chatsworth,GA,34.761633,-84.770543
Tobaco,https://www.familydollar.com/locations/ga/clarkston/30154/,FAMILY DOLLAR #10154,1125 N Indian Creek Drive,Clarkston,GA,33.809169,-84.241573
Adult Beverage,https://www.familydollar.com/locations/ga/clarkston/30154/,FAMILY DOLLAR #10154,1125 N Indian Creek Drive,Clarkston,GA,33.809169,-84.241573
Tobaco,https://www.familydollar.com/locations/ga/clarkston/23475/,FAMILY DOLLAR #3475,4602 E Ponce De Leon Ave,Clarkston,GA,33.819964,-84.228895
Tobaco,https://www.familydollar.com/locations/ga/claxton/20385/,FAMILY DOLLAR #385,7967 Us Highway 301,Claxton,GA,32.17211796,-81.90019656
Adult Beverage,https://www.familydollar.com/locations/ga/claxton/20385/,FAMILY DOLLAR #385,7967 Us Highway 301,Claxton,GA,32.17211796,-81.90019656
Propane,https://www.familydollar.com/locations/ga/claxton/20385/,FAMILY DOLLAR #385,7967 Us Highway 301,Claxton,GA,32.17211796,-81.90019656
Tobaco,https://www.familydollar.com/locations/ga/clayton/20874/,FAMILY DOLLAR #874,112 Plaza Way,Clayton,GA,34.876175,-83.399029
Tobaco,https://www.familydollar.com/locations/ga/college-park/32249/,FAMILY DOLLAR #12249,2461a Riverdale Road,College Park,GA,33.63605509,-84.47015919
Tobaco,https://www.familydollar.com/locations/ga/colquitt/20794/,FAMILY DOLLAR #794,401 E Crawford St,Colquitt,GA,31.166779,-84.725018
Adult Beverage,https://www.familydollar.com/locations/ga/colquitt/20794/,FAMILY DOLLAR #794,401 E Crawford St,Colquitt,GA,31.166779,-84.725018
Tobaco,https://www.familydollar.com/locations/ga/columbus/30423/,FAMILY DOLLAR #10423,2323 Hamilton Road,Columbus,GA,32.48670018,-84.98380203
Adult Beverage,https://www.familydollar.com/locations/ga/columbus/30423/,FAMILY DOLLAR #10423,2323 Hamilton Road,Columbus,GA,32.48670018,-84.98380203
Tobaco,https://www.familydollar.com/locations/ga/columbus/31402/,FAMILY DOLLAR #11402,906 Amber Drive,Columbus,GA,32.46327405,-84.89198006
Adult Beverage,https://www.familydollar.com/locations/ga/columbus/31402/,FAMILY DOLLAR #11402,906 Amber Drive,Columbus,GA,32.46327405,-84.89198006
Tobaco,https://www.familydollar.com/locations/ga/columbus/31459/,FAMILY DOLLAR #11459,4011 Forrest Road,Columbus,GA,32.48432858,-84.92400808
Adult Beverage,https://www.familydollar.com/locations/ga/columbus/31459/,FAMILY DOLLAR #11459,4011 Forrest Road,Columbus,GA,32.48432858,-84.92400808
Tobaco,https://www.familydollar.com/locations/ga/columbus/31660/,FAMILY DOLLAR #11660,826 Veterans Parkway,Columbus,GA,32.46227279,-84.98721364
Adult Beverage,https://www.familydollar.com/locations/ga/columbus/31660/,FAMILY DOLLAR #11660,826 Veterans Parkway,Columbus,GA,32.46227279,-84.98721364
Tobaco,https://www.familydollar.com/locations/ga/columbus/32619/,FAMILY DOLLAR #12619,2801 Double Churches Road,Columbus,GA,32.552,-84.94966
Tobaco,https://www.familydollar.com/locations/ga/columbus/21563/,FAMILY DOLLAR #1563,3438 Buena Vista Road,Columbus,GA,32.455952,-84.937052
Adult Beverage,https://www.familydollar.com/locations/ga/columbus/21563/,FAMILY DOLLAR #1563,3438 Buena Vista Road,Columbus,GA,32.455952,-84.937052
Tobaco,https://www.familydollar.com/locations/ga/columbus/20333/,FAMILY DOLLAR #333,2112 Floyd Road,Columbus,GA,32.480576,-84.89841
Adult Beverage,https://www.familydollar.com/locations/ga/columbus/20333/,FAMILY DOLLAR #333,2112 Floyd Road,Columbus,GA,32.480576,-84.89841
Tobaco,https://www.familydollar.com/locations/ga/columbus/20418/,FAMILY DOLLAR #418,3759 Victory Dr Ste 12,Columbus,GA,32.416631,-84.942485
Tobaco,https://www.familydollar.com/locations/ga/columbus/24246/,FAMILY DOLLAR #4246,2126 Buena Vista Road,Columbus,GA,32.464405,-84.95954
Adult Beverage,https://www.familydollar.com/locations/ga/columbus/24246/,FAMILY DOLLAR #4246,2126 Buena Vista Road,Columbus,GA,32.464405,-84.95954
Tobaco,https://www.familydollar.com/locations/ga/columbus/25108/,FAMILY DOLLAR #5108,1647 S Lumpkin Rd,Columbus,GA,32.42393,-84.9511
Adult Beverage,https://www.familydollar.com/locations/ga/columbus/25108/,FAMILY DOLLAR #5108,1647 S Lumpkin Rd,Columbus,GA,32.42393,-84.9511
Tobaco,https://www.familydollar.com/locations/ga/columbus/26827/,FAMILY DOLLAR #6827,3126 Veterans Pkwy,Columbus,GA,32.49349,-84.980831
Tobaco,https://www.familydollar.com/locations/ga/columbus/28295/,FAMILY DOLLAR #8295,5600 Milgen Rd,Columbus,GA,32.519777,-84.890057
Tobaco,https://www.familydollar.com/locations/ga/columbus/28860/,FAMILY DOLLAR #8860,810 Fort Benning Road,Columbus,GA,32.43645059,-84.9395229
Adult Beverage,https://www.familydollar.com/locations/ga/columbus/28860/,FAMILY DOLLAR #8860,810 Fort Benning Road,Columbus,GA,32.43645059,-84.9395229
Tobaco,https://www.familydollar.com/locations/ga/columbus/29373/,FAMILY DOLLAR #9373,5181 Warm Springs Rd,Columbus,GA,32.537039,-84.904425
Adult Beverage,https://www.familydollar.com/locations/ga/columbus/29373/,FAMILY DOLLAR #9373,5181 Warm Springs Rd,Columbus,GA,32.537039,-84.904425
Tobaco,https://www.familydollar.com/locations/ga/columus/25105/,FAMILY DOLLAR #5105,326 Farr Rd,Columus,GA,32.443792,-84.923064
Adult Beverage,https://www.familydollar.com/locations/ga/columus/25105/,FAMILY DOLLAR #5105,326 Farr Rd,Columus,GA,32.443792,-84.923064
Tobaco,https://www.familydollar.com/locations/ga/conyers/30212/,FAMILY DOLLAR #10212,1830 Highway 138 Se,Conyers,GA,33.637169,-84.017872
Adult Beverage,https://www.familydollar.com/locations/ga/conyers/30212/,FAMILY DOLLAR #10212,1830 Highway 138 Se,Conyers,GA,33.637169,-84.017872
Tobaco,https://www.familydollar.com/locations/ga/conyers/31602/,FAMILY DOLLAR #11602,2601 Highway 138 Ne,Conyers,GA,33.69352887,-83.95972125
Adult Beverage,https://www.familydollar.com/locations/ga/conyers/31602/,FAMILY DOLLAR #11602,2601 Highway 138 Ne,Conyers,GA,33.69352887,-83.95972125
Propane,https://www.familydollar.com/locations/ga/conyers/31602/,FAMILY DOLLAR #11602,2601 Highway 138 Ne,Conyers,GA,33.69352887,-83.95972125
Tobaco,https://www.familydollar.com/locations/ga/conyers/24224/,FAMILY DOLLAR #4224,1163 West Ave Sw,Conyers,GA,33.667127,-84.026721
Adult Beverage,https://www.familydollar.com/locations/ga/conyers/24224/,FAMILY DOLLAR #4224,1163 West Ave Sw,Conyers,GA,33.667127,-84.026721
Tobaco,https://www.familydollar.com/locations/ga/conyers/27671/,FAMILY DOLLAR #7671,2460 Salem Road,Conyers,GA,33.62452,-83.976037
Adult Beverage,https://www.familydollar.com/locations/ga/conyers/27671/,FAMILY DOLLAR #7671,2460 Salem Road,Conyers,GA,33.62452,-83.976037
Tobaco,https://www.familydollar.com/locations/ga/conyers/28496/,FAMILY DOLLAR #8496,425 Signman Rd Nw,Conyers,GA,33.685227,-84.001532
Adult Beverage,https://www.familydollar.com/locations/ga/conyers/28496/,FAMILY DOLLAR #8496,425 Signman Rd Nw,Conyers,GA,33.685227,-84.001532
Tobaco,https://www.familydollar.com/locations/ga/cordele/30889/,FAMILY DOLLAR #10889,302 W 24th Avenue,Cordele,GA,31.955391,-83.785005
Adult Beverage,https://www.familydollar.com/locations/ga/cordele/30889/,FAMILY DOLLAR #10889,302 W 24th Avenue,Cordele,GA,31.955391,-83.785005
Tobaco,https://www.familydollar.com/locations/ga/covington/31714/,FAMILY DOLLAR #11714,3250 Highway 81,Covington,GA,33.54823582,-83.94281172
Adult Beverage,https://www.familydollar.com/locations/ga/covington/31714/,FAMILY DOLLAR #11714,3250 Highway 81,Covington,GA,33.54823582,-83.94281172
Propane,https://www.familydollar.com/locations/ga/covington/31714/,FAMILY DOLLAR #11714,3250 Highway 81,Covington,GA,33.54823582,-83.94281172
Tobaco,https://www.familydollar.com/locations/ga/crawford/23373/,FAMILY DOLLAR #3373,1178 Athens Rd,Crawford,GA,33.882332,-83.157697
Adult Beverage,https://www.familydollar.com/locations/ga/crawford/23373/,FAMILY DOLLAR #3373,1178 Athens Rd,Crawford,GA,33.882332,-83.157697
Propane,https://www.familydollar.com/locations/ga/crawford/23373/,FAMILY DOLLAR #3373,1178 Athens Rd,Crawford,GA,33.882332,-83.157697
Fresh Produce,https://www.familydollar.com/locations/ga/crawford/23373/,FAMILY DOLLAR #3373,1178 Athens Rd,Crawford,GA,33.882332,-83.157697
Tobaco,https://www.familydollar.com/locations/ga/cuthbert/20424/,FAMILY DOLLAR #424,681 Blakely St,Cuthbert,GA,31.76692592,-84.79093535
Tobaco,https://www.familydollar.com/locations/ga/dalton/21503/,FAMILY DOLLAR #1503,2410 Cleveland Highway,Dalton,GA,34.819798,-84.94528
Adult Beverage,https://www.familydollar.com/locations/ga/dalton/21503/,FAMILY DOLLAR #1503,2410 Cleveland Highway,Dalton,GA,34.819798,-84.94528
Tobaco,https://www.familydollar.com/locations/ga/dalton/23574/,FAMILY DOLLAR #3574,3901 Cleveland Rd,Dalton,GA,34.896725,-84.947433
Tobaco,https://www.familydollar.com/locations/ga/dalton/20036/,FAMILY DOLLAR #36,1210 E. Morris Street,Dalton,GA,34.767148,-84.950731
Adult Beverage,https://www.familydollar.com/locations/ga/dalton/20036/,FAMILY DOLLAR #36,1210 E. Morris Street,Dalton,GA,34.767148,-84.950731
Propane,https://www.familydollar.com/locations/ga/dalton/20036/,FAMILY DOLLAR #36,1210 E. Morris Street,Dalton,GA,34.767148,-84.950731
Tobaco,https://www.familydollar.com/locations/ga/dawson/21307/,FAMILY DOLLAR #1307,418 S Main St,Dawson,GA,31.769454,-84.446396
Adult Beverage,https://www.familydollar.com/locations/ga/dawson/21307/,FAMILY DOLLAR #1307,418 S Main St,Dawson,GA,31.769454,-84.446396
Tobaco,https://www.familydollar.com/locations/ga/decatur/30491/,FAMILY DOLLAR #10491,3429 Covington Highway,Decatur,GA,33.768936,-84.252697
Tobaco,https://www.familydollar.com/locations/ga/decatur/31824/,FAMILY DOLLAR #11824,2942 Rainbow Drive,Decatur,GA,33.71023694,-84.26958542
Adult Beverage,https://www.familydollar.com/locations/ga/decatur/31824/,FAMILY DOLLAR #11824,2942 Rainbow Drive,Decatur,GA,33.71023694,-84.26958542
Tobaco,https://www.familydollar.com/locations/ga/decatur/20511/,FAMILY DOLLAR #511,1982 Candler Rd,Decatur,GA,33.733132,-84.28289
Tobaco,https://www.familydollar.com/locations/ga/decatur/25820/,FAMILY DOLLAR #5820,2415 Dekalb Medical Pky,Decatur,GA,33.716275,-84.146378
Tobaco,https://www.familydollar.com/locations/ga/decatur/27528/,FAMILY DOLLAR #7528,4787 Covington Hwy,Decatur,GA,33.73721377,-84.21777011
Adult Beverage,https://www.familydollar.com/locations/ga/decatur/27528/,FAMILY DOLLAR #7528,4787 Covington Hwy,Decatur,GA,33.73721377,-84.21777011
Propane,https://www.familydollar.com/locations/ga/decatur/27528/,FAMILY DOLLAR #7528,4787 Covington Hwy,Decatur,GA,33.73721377,-84.21777011
Tobaco,https://www.familydollar.com/locations/ga/decatur/27641/,FAMILY DOLLAR #7641,3850 Flat Shoals Pkwy,Decatur,GA,33.69575,-84.26241
Adult Beverage,https://www.familydollar.com/locations/ga/decatur/27641/,FAMILY DOLLAR #7641,3850 Flat Shoals Pkwy,Decatur,GA,33.69575,-84.26241
Tobaco,https://www.familydollar.com/locations/ga/decatur/28474/,FAMILY DOLLAR #8474,2500 Snapfinger Road,Decatur,GA,33.70682,-84.21715
Adult Beverage,https://www.familydollar.com/locations/ga/decatur/28474/,FAMILY DOLLAR #8474,2500 Snapfinger Road,Decatur,GA,33.70682,-84.21715
Tobaco,https://www.familydollar.com/locations/ga/douglas/20215/,FAMILY DOLLAR #215,831 S Peterson Ave,Douglas,GA,31.499586,-82.852009
Tobaco,https://www.familydollar.com/locations/ga/douglasville/20350/,FAMILY DOLLAR #350,6113 Fairburn Rd,Douglasville,GA,33.752519,-84.73232
Tobaco,https://www.familydollar.com/locations/ga/douglasville/27132/,FAMILY DOLLAR #7132,"4336 Ridge Rd, Ste 101",Douglasville,GA,33.81385,-84.819109
Tobaco,https://www.familydollar.com/locations/ga/dublin/32539/,FAMILY DOLLAR #12539,921 Hillcrest Parkway,Dublin,GA,32.547607,-82.9324
Tobaco,https://www.familydollar.com/locations/ga/dublin/20289/,FAMILY DOLLAR #289,304 N Jefferson St,Dublin,GA,32.54234,-82.90638
Tobaco,https://www.familydollar.com/locations/ga/dublin/27342/,FAMILY DOLLAR #7342,1206 Telfair St,Dublin,GA,32.52667485,-82.91406589
Adult Beverage,https://www.familydollar.com/locations/ga/dublin/27342/,FAMILY DOLLAR #7342,1206 Telfair St,Dublin,GA,32.52667485,-82.91406589
Tobaco,https://www.familydollar.com/locations/ga/eastman/26823/,FAMILY DOLLAR #6823,823 College St,Eastman,GA,32.188749,-83.173698
Tobaco,https://www.familydollar.com/locations/ga/east-point/30654/,FAMILY DOLLAR #10654,3128 Washington Road,East Point,GA,33.670045,-84.462393
Tobaco,https://www.familydollar.com/locations/ga/east-point/31615/,FAMILY DOLLAR #11615,4226 Washington Road,East Point,GA,33.640156,-84.49089172
Adult Beverage,https://www.familydollar.com/locations/ga/east-point/31615/,FAMILY DOLLAR #11615,4226 Washington Road,East Point,GA,33.640156,-84.49089172
Tobaco,https://www.familydollar.com/locations/ga/east-point/31696/,FAMILY DOLLAR #11696,3031 Main Street,East Point,GA,33.67248922,-84.44308186
Adult Beverage,https://www.familydollar.com/locations/ga/east-point/31696/,FAMILY DOLLAR #11696,3031 Main Street,East Point,GA,33.67248922,-84.44308186
Tobaco,https://www.familydollar.com/locations/ga/east-point/21788/,FAMILY DOLLAR #1788,2433 Delowe Drive,East Point,GA,33.68909,-84.45818
Tobaco,https://www.familydollar.com/locations/ga/ellenwood/25315/,FAMILY DOLLAR #5315,156 Fairview Rd,Ellenwood,GA,33.620456,-84.240681
Tobaco,https://www.familydollar.com/locations/ga/eton/29065/,FAMILY DOLLAR #9065,79-H Highway 286,Eton,GA,34.82569,-84.764635
Adult Beverage,https://www.familydollar.com/locations/ga/eton/29065/,FAMILY DOLLAR #9065,79-H Highway 286,Eton,GA,34.82569,-84.764635
Tobaco,https://www.familydollar.com/locations/ga/fairburn/31634/,FAMILY DOLLAR #11634,8370 Senoia Rd,Fairburn,GA,33.52965406,-84.57533155
Adult Beverage,https://www.familydollar.com/locations/ga/fairburn/31634/,FAMILY DOLLAR #11634,8370 Senoia Rd,Fairburn,GA,33.52965406,-84.57533155
Tobaco,https://www.familydollar.com/locations/ga/fairburn/20499/,FAMILY DOLLAR #499,100 Nw Broad Street,Fairburn,GA,33.568675,-84.578789
Adult Beverage,https://www.familydollar.com/locations/ga/fairburn/20499/,FAMILY DOLLAR #499,100 Nw Broad Street,Fairburn,GA,33.568675,-84.578789
Propane,https://www.familydollar.com/locations/ga/fairburn/20499/,FAMILY DOLLAR #499,100 Nw Broad Street,Fairburn,GA,33.568675,-84.578789
Tobaco,https://www.familydollar.com/locations/ga/fayetteville/31060/,FAMILY DOLLAR #11060,905b Glynn Street N,Fayetteville,GA,33.4647746,-84.44827662
Adult Beverage,https://www.familydollar.com/locations/ga/fayetteville/31060/,FAMILY DOLLAR #11060,905b Glynn Street N,Fayetteville,GA,33.4647746,-84.44827662
Tobaco,https://www.familydollar.com/locations/ga/fayetteville/28582/,FAMILY DOLLAR #8582,12100 County Line Road,Fayetteville,GA,33.426275,-84.401723
Tobaco,https://www.familydollar.com/locations/ga/fitzgerald/20218/,FAMILY DOLLAR #218,179 Ocilla Highway,Fitzgerald,GA,31.69959179,-83.25093332
Adult Beverage,https://www.familydollar.com/locations/ga/fitzgerald/20218/,FAMILY DOLLAR #218,179 Ocilla Highway,Fitzgerald,GA,31.69959179,-83.25093332
Tobaco,https://www.familydollar.com/locations/ga/folkston/20564/,FAMILY DOLLAR #564,3650 Second St. S.,Folkston,GA,30.825237,-82.003191
Tobaco,https://www.familydollar.com/locations/ga/forest-park/23669/,FAMILY DOLLAR #3669,798 Morrow Rd,Forest Park,GA,33.591246,-84.364154
Tobaco,https://www.familydollar.com/locations/ga/forest-park/20397/,FAMILY DOLLAR #397,4735 Jonesboro Rd,Forest Park,GA,33.625196,-84.356023
Tobaco,https://www.familydollar.com/locations/ga/forest-park/27963/,FAMILY DOLLAR #7963,4018 Jonesboro Rd,Forest Park,GA,33.645464,-84.363642
Adult Beverage,https://www.familydollar.com/locations/ga/forest-park/27963/,FAMILY DOLLAR #7963,4018 Jonesboro Rd,Forest Park,GA,33.645464,-84.363642
Propane,https://www.familydollar.com/locations/ga/forest-park/27963/,FAMILY DOLLAR #7963,4018 Jonesboro Rd,Forest Park,GA,33.645464,-84.363642
Tobaco,https://www.familydollar.com/locations/ga/forest-park/29226/,FAMILY DOLLAR #9226,307 Forest Pkwy,Forest Park,GA,33.620164,-84.379593
Adult Beverage,https://www.familydollar.com/locations/ga/forest-park/29226/,FAMILY DOLLAR #9226,307 Forest Pkwy,Forest Park,GA,33.620164,-84.379593
Tobaco,https://www.familydollar.com/locations/ga/forsyth/28366/,FAMILY DOLLAR #8366,173 N. Lee Street,Forsyth,GA,33.039338,-83.937245
Tobaco,https://www.familydollar.com/locations/ga/fort-oglethorpe/20263/,FAMILY DOLLAR #263,767 Battlefield Pkwy,Fort Oglethorpe,GA,34.955255,-85.251693
Tobaco,https://www.familydollar.com/locations/ga/fort-valley/20246/,FAMILY DOLLAR #246,536 Vineville St,Fort Valley,GA,32.559849,-83.892825
Adult Beverage,https://www.familydollar.com/locations/ga/fort-valley/20246/,FAMILY DOLLAR #246,536 Vineville St,Fort Valley,GA,32.559849,-83.892825
Tobaco,https://www.familydollar.com/locations/ga/franklin/22732/,FAMILY DOLLAR #2732,291 E Court Sq,Franklin,GA,33.278189,-85.097787
Tobaco,https://www.familydollar.com/locations/ga/gainesville/30650/,FAMILY DOLLAR #10650,1800 Athens Highway,Gainesville,GA,34.28097891,-83.79027494
Adult Beverage,https://www.familydollar.com/locations/ga/gainesville/30650/,FAMILY DOLLAR #10650,1800 Athens Highway,Gainesville,GA,34.28097891,-83.79027494
Propane,https://www.familydollar.com/locations/ga/gainesville/30650/,FAMILY DOLLAR #10650,1800 Athens Highway,Gainesville,GA,34.28097891,-83.79027494
Tobaco,https://www.familydollar.com/locations/ga/gainesville/32233/,FAMILY DOLLAR #12233,2941 Mountain View Rd,Gainesville,GA,34.25306704,-83.85784973
Adult Beverage,https://www.familydollar.com/locations/ga/gainesville/32233/,FAMILY DOLLAR #12233,2941 Mountain View Rd,Gainesville,GA,34.25306704,-83.85784973
Tobaco,https://www.familydollar.com/locations/ga/gainesville/20014/,FAMILY DOLLAR #14,420 Atlanta Highway,Gainesville,GA,34.28173868,-83.83999876
Adult Beverage,https://www.familydollar.com/locations/ga/gainesville/20014/,FAMILY DOLLAR #14,420 Atlanta Highway,Gainesville,GA,34.28173868,-83.83999876
Tobaco,https://www.familydollar.com/locations/ga/gainesville/26976/,FAMILY DOLLAR #6976,1705 Cleveland Ave,Gainesville,GA,34.328217,-83.815155
Adult Beverage,https://www.familydollar.com/locations/ga/gainesville/26976/,FAMILY DOLLAR #6976,1705 Cleveland Ave,Gainesville,GA,34.328217,-83.815155
Propane,https://www.familydollar.com/locations/ga/gainesville/26976/,FAMILY DOLLAR #6976,1705 Cleveland Ave,Gainesville,GA,34.328217,-83.815155
Tobaco,https://www.familydollar.com/locations/ga/garden-city/21809/,FAMILY DOLLAR #1809,4302 Augusta Road,Garden City,GA,32.104183,-81.150024
Tobaco,https://www.familydollar.com/locations/ga/gordon/20526/,FAMILY DOLLAR #526,250 Milledgeville Highway,Gordon,GA,32.882549,-83.332273
Adult Beverage,https://www.familydollar.com/locations/ga/gordon/20526/,FAMILY DOLLAR #526,250 Milledgeville Highway,Gordon,GA,32.882549,-83.332273
Tobaco,https://www.familydollar.com/locations/ga/greensboro/20507/,FAMILY DOLLAR #507,210 N Main St,Greensboro,GA,33.577712,-83.182943
Adult Beverage,https://www.familydollar.com/locations/ga/greensboro/20507/,FAMILY DOLLAR #507,210 N Main St,Greensboro,GA,33.577712,-83.182943
Propane,https://www.familydollar.com/locations/ga/greensboro/20507/,FAMILY DOLLAR #507,210 N Main St,Greensboro,GA,33.577712,-83.182943
Tobaco,https://www.familydollar.com/locations/ga/griffin/20267/,FAMILY DOLLAR #267,514 W Taylor St,Griffin,GA,33.246792,-84.270982
Adult Beverage,https://www.familydollar.com/locations/ga/griffin/20267/,FAMILY DOLLAR #267,514 W Taylor St,Griffin,GA,33.246792,-84.270982
Tobaco,https://www.familydollar.com/locations/ga/grovetown/31864/,FAMILY DOLLAR #11864,617 E. Robinson Ave.,Grovetown,GA,33.44218,-82.18477
Adult Beverage,https://www.familydollar.com/locations/ga/grovetown/31864/,FAMILY DOLLAR #11864,617 E. Robinson Ave.,Grovetown,GA,33.44218,-82.18477
Tobaco,https://www.familydollar.com/locations/ga/hampton/25987/,FAMILY DOLLAR #5987,93 Woolsley Rd,Hampton,GA,33.38069,-84.299464
Adult Beverage,https://www.familydollar.com/locations/ga/hampton/25987/,FAMILY DOLLAR #5987,93 Woolsley Rd,Hampton,GA,33.38069,-84.299464
Propane,https://www.familydollar.com/locations/ga/hampton/25987/,FAMILY DOLLAR #5987,93 Woolsley Rd,Hampton,GA,33.38069,-84.299464
Tobaco,https://www.familydollar.com/locations/ga/hapeville/25059/,FAMILY DOLLAR #5059,3310 Dogwood Dr,Hapeville,GA,33.663986,-84.408057
Tobaco,https://www.familydollar.com/locations/ga/harlem/24156/,FAMILY DOLLAR #4156,250 E Milledgeville Road,Harlem,GA,33.41633652,-82.31692391
Adult Beverage,https://www.familydollar.com/locations/ga/harlem/24156/,FAMILY DOLLAR #4156,250 E Milledgeville Road,Harlem,GA,33.41633652,-82.31692391
Tobaco,https://www.familydollar.com/locations/ga/hartwell/29233/,FAMILY DOLLAR #9233,503 E Franklin Street,Hartwell,GA,34.354115,-82.92073
Adult Beverage,https://www.familydollar.com/locations/ga/hartwell/29233/,FAMILY DOLLAR #9233,503 E Franklin Street,Hartwell,GA,34.354115,-82.92073
Tobaco,https://www.familydollar.com/locations/ga/hawkinsville/20358/,FAMILY DOLLAR #358,429 Broad St,Hawkinsville,GA,32.281983,-83.472182
Adult Beverage,https://www.familydollar.com/locations/ga/hawkinsville/20358/,FAMILY DOLLAR #358,429 Broad St,Hawkinsville,GA,32.281983,-83.472182
Tobaco,https://www.familydollar.com/locations/ga/hephzibah/21675/,FAMILY DOLLAR #1675,2510 Tobacco Rd,Hephzibah,GA,33.374887,-82.073581
Tobaco,https://www.familydollar.com/locations/ga/hephzibah/24383/,FAMILY DOLLAR #4383,4825 Windsor Spring Rd,Hephzibah,GA,33.315195,-82.094598
Tobaco,https://www.familydollar.com/locations/ga/hephzibah/26612/,FAMILY DOLLAR #6612,2809 Tobacco Rd,Hephzibah,GA,33.388179,-82.101528
Adult Beverage,https://www.familydollar.com/locations/ga/hephzibah/26612/,FAMILY DOLLAR #6612,2809 Tobacco Rd,Hephzibah,GA,33.388179,-82.101528
Propane,https://www.familydollar.com/locations/ga/hephzibah/26612/,FAMILY DOLLAR #6612,2809 Tobacco Rd,Hephzibah,GA,33.388179,-82.101528
Fresh Produce,https://www.familydollar.com/locations/ga/hephzibah/26612/,FAMILY DOLLAR #6612,2809 Tobacco Rd,Hephzibah,GA,33.388179,-82.101528
Tobaco,https://www.familydollar.com/locations/ga/hinesville/30979/,FAMILY DOLLAR #10979,5549 W. Oglethorpe Avenue,Hinesville,GA,31.77648122,-81.62912788
Adult Beverage,https://www.familydollar.com/locations/ga/hinesville/30979/,FAMILY DOLLAR #10979,5549 W. Oglethorpe Avenue,Hinesville,GA,31.77648122,-81.62912788
Tobaco,https://www.familydollar.com/locations/ga/hinesville/20381/,FAMILY DOLLAR #381,402 S Main St,Hinesville,GA,31.843646,-81.596542
Tobaco,https://www.familydollar.com/locations/ga/hinesville/24745/,FAMILY DOLLAR #4745,912 Elma G Miles Pkwy,Hinesville,GA,31.82600446,-81.62177448
Adult Beverage,https://www.familydollar.com/locations/ga/hinesville/24745/,FAMILY DOLLAR #4745,912 Elma G Miles Pkwy,Hinesville,GA,31.82600446,-81.62177448
Tobaco,https://www.familydollar.com/locations/ga/homerville/20846/,FAMILY DOLLAR #846,548 N Church St,Homerville,GA,31.04425719,-82.74990482
Tobaco,https://www.familydollar.com/locations/ga/hoschton/28706/,FAMILY DOLLAR #8706,6165 Highway 124 W,Hoschton,GA,34.10806583,-83.70508156
Tobaco,https://www.familydollar.com/locations/ga/hull/32262/,FAMILY DOLLAR #12262,8964 Hwy 29 S,Hull,GA,34.03211222,-83.31621609
Adult Beverage,https://www.familydollar.com/locations/ga/hull/32262/,FAMILY DOLLAR #12262,8964 Hwy 29 S,Hull,GA,34.03211222,-83.31621609
Tobaco,https://www.familydollar.com/locations/ga/jackson/20313/,FAMILY DOLLAR #313,669 E 3rd St,Jackson,GA,33.294967,-83.958883
Adult Beverage,https://www.familydollar.com/locations/ga/jackson/20313/,FAMILY DOLLAR #313,669 E 3rd St,Jackson,GA,33.294967,-83.958883
Tobaco,https://www.familydollar.com/locations/ga/jasper/23509/,FAMILY DOLLAR #3509,55 Burnt Mountain Rd,Jasper,GA,34.470228,-84.427535
Adult Beverage,https://www.familydollar.com/locations/ga/jasper/23509/,FAMILY DOLLAR #3509,55 Burnt Mountain Rd,Jasper,GA,34.470228,-84.427535
Tobaco,https://www.familydollar.com/locations/ga/jefferson/23393/,FAMILY DOLLAR #3393,1251 Washington St,Jefferson,GA,34.129844,-83.587903
Adult Beverage,https://www.familydollar.com/locations/ga/jefferson/23393/,FAMILY DOLLAR #3393,1251 Washington St,Jefferson,GA,34.129844,-83.587903
Tobaco,https://www.familydollar.com/locations/ga/jeffersonville/30904/,FAMILY DOLLAR #10904,13392 Us Highway 80,Jeffersonville,GA,32.688499,-83.349721
Adult Beverage,https://www.familydollar.com/locations/ga/jeffersonville/30904/,FAMILY DOLLAR #10904,13392 Us Highway 80,Jeffersonville,GA,32.688499,-83.349721
Tobaco,https://www.familydollar.com/locations/ga/jesup/20668/,FAMILY DOLLAR #668,970 Sunset Blvd,Jesup,GA,31.606057,-81.908606
Tobaco,https://www.familydollar.com/locations/ga/jonesboro/30473/,FAMILY DOLLAR #10473,2335 Hwy 138 E,Jonesboro,GA,33.536328,-84.314577
Adult Beverage,https://www.familydollar.com/locations/ga/jonesboro/30473/,FAMILY DOLLAR #10473,2335 Hwy 138 E,Jonesboro,GA,33.536328,-84.314577
Tobaco,https://www.familydollar.com/locations/ga/jonesboro/31059/,FAMILY DOLLAR #11059,2923 Mount Zion Road,Jonesboro,GA,33.55480894,-84.29551073
Adult Beverage,https://www.familydollar.com/locations/ga/jonesboro/31059/,FAMILY DOLLAR #11059,2923 Mount Zion Road,Jonesboro,GA,33.55480894,-84.29551073
Propane,https://www.familydollar.com/locations/ga/jonesboro/31059/,FAMILY DOLLAR #11059,2923 Mount Zion Road,Jonesboro,GA,33.55480894,-84.29551073
Fresh Produce,https://www.familydollar.com/locations/ga/jonesboro/31059/,FAMILY DOLLAR #11059,2923 Mount Zion Road,Jonesboro,GA,33.55480894,-84.29551073
Tobaco,https://www.familydollar.com/locations/ga/jonesboro/20270/,FAMILY DOLLAR #270,830 Spur 138,Jonesboro,GA,33.538834,-84.363686
Adult Beverage,https://www.familydollar.com/locations/ga/jonesboro/20270/,FAMILY DOLLAR #270,830 Spur 138,Jonesboro,GA,33.538834,-84.363686
Tobaco,https://www.familydollar.com/locations/ga/jonesboro/24238/,FAMILY DOLLAR #4238,8500 Highway 85,Jonesboro,GA,33.522697,-84.422692
Adult Beverage,https://www.familydollar.com/locations/ga/jonesboro/24238/,FAMILY DOLLAR #4238,8500 Highway 85,Jonesboro,GA,33.522697,-84.422692
Propane,https://www.familydollar.com/locations/ga/jonesboro/24238/,FAMILY DOLLAR #4238,8500 Highway 85,Jonesboro,GA,33.522697,-84.422692
Tobaco,https://www.familydollar.com/locations/ga/jonesboro/26415/,FAMILY DOLLAR #6415,1765 Mundy Mill Rd,Jonesboro,GA,33.485713,-84.338487
Adult Beverage,https://www.familydollar.com/locations/ga/jonesboro/26415/,FAMILY DOLLAR #6415,1765 Mundy Mill Rd,Jonesboro,GA,33.485713,-84.338487
Propane,https://www.familydollar.com/locations/ga/jonesboro/26415/,FAMILY DOLLAR #6415,1765 Mundy Mill Rd,Jonesboro,GA,33.485713,-84.338487
Tobaco,https://www.familydollar.com/locations/ga/jonesboro/26973/,FAMILY DOLLAR #6973,8570a Tara Blvd,Jonesboro,GA,33.520805,-84.362404
Adult Beverage,https://www.familydollar.com/locations/ga/jonesboro/26973/,FAMILY DOLLAR #6973,8570a Tara Blvd,Jonesboro,GA,33.520805,-84.362404
Tobaco,https://www.familydollar.com/locations/ga/jonesboro/28894/,FAMILY DOLLAR #8894,7132 Tara Blvd.,Jonesboro,GA,33.559637,-84.370579
Adult Beverage,https://www.familydollar.com/locations/ga/jonesboro/28894/,FAMILY DOLLAR #8894,7132 Tara Blvd.,Jonesboro,GA,33.559637,-84.370579
Propane,https://www.familydollar.com/locations/ga/jonesboro/28894/,FAMILY DOLLAR #8894,7132 Tara Blvd.,Jonesboro,GA,33.559637,-84.370579
Fresh Produce,https://www.familydollar.com/locations/ga/jonesboro/28894/,FAMILY DOLLAR #8894,7132 Tara Blvd.,Jonesboro,GA,33.559637,-84.370579
Tobaco,https://www.familydollar.com/locations/ga/kingsland/23897/,FAMILY DOLLAR #3897,649 S Lee St,Kingsland,GA,30.792795,-81.688294
Adult Beverage,https://www.familydollar.com/locations/ga/kingsland/23897/,FAMILY DOLLAR #3897,649 S Lee St,Kingsland,GA,30.792795,-81.688294
Propane,https://www.familydollar.com/locations/ga/kingsland/23897/,FAMILY DOLLAR #3897,649 S Lee St,Kingsland,GA,30.792795,-81.688294
Tobaco,https://www.familydollar.com/locations/ga/lagrange/26189/,FAMILY DOLLAR #6189,916 Hogansville Rd (U. S. High,Lagrange,GA,33.047657,-85.013428
Adult Beverage,https://www.familydollar.com/locations/ga/lagrange/26189/,FAMILY DOLLAR #6189,916 Hogansville Rd (U. S. High,Lagrange,GA,33.047657,-85.013428
Tobaco,https://www.familydollar.com/locations/ga/la-grange/20620/,FAMILY DOLLAR #620,527 S Greenwood St,La Grange,GA,33.032893,-85.034764
Adult Beverage,https://www.familydollar.com/locations/ga/la-grange/20620/,FAMILY DOLLAR #620,527 S Greenwood St,La Grange,GA,33.032893,-85.034764
Tobaco,https://www.familydollar.com/locations/ga/lake-park/23231/,FAMILY DOLLAR #3231,1006 Lakes Blvd,Lake Park,GA,30.682446,-83.21648
Adult Beverage,https://www.familydollar.com/locations/ga/lake-park/23231/,FAMILY DOLLAR #3231,1006 Lakes Blvd,Lake Park,GA,30.682446,-83.21648
Tobaco,https://www.familydollar.com/locations/ga/lavonia/20581/,FAMILY DOLLAR #581,12280 Augusta Rd,Lavonia,GA,34.429764,-83.105854
Tobaco,https://www.familydollar.com/locations/ga/lawrenceville/31394/,FAMILY DOLLAR #11394,1896 Old Norcross Rd,Lawrenceville,GA,33.95152665,-84.0590501
Adult Beverage,https://www.familydollar.com/locations/ga/lawrenceville/31394/,FAMILY DOLLAR #11394,1896 Old Norcross Rd,Lawrenceville,GA,33.95152665,-84.0590501
Tobaco,https://www.familydollar.com/locations/ga/lawrenceville/24576/,FAMILY DOLLAR #4576,2369 Lawrenceville Hwy,Lawrenceville,GA,33.927823,-84.060826
Tobaco,https://www.familydollar.com/locations/ga/lawrenceville/28213/,FAMILY DOLLAR #8213,1455 Pleasant Hill Rd,Lawrenceville,GA,33.939285,-84.123521
Tobaco,https://www.familydollar.com/locations/ga/lawrenceville/28557/,FAMILY DOLLAR #8557,2630 Old Norcross Road,Lawrenceville,GA,33.949316,-84.084955
Adult Beverage,https://www.familydollar.com/locations/ga/lawrenceville/28557/,FAMILY DOLLAR #8557,2630 Old Norcross Road,Lawrenceville,GA,33.949316,-84.084955
Tobaco,https://www.familydollar.com/locations/ga/leary/32090/,FAMILY DOLLAR #12090,39292 Mercer Avenue,Leary,GA,31.4847831,-84.51716583
Adult Beverage,https://www.familydollar.com/locations/ga/leary/32090/,FAMILY DOLLAR #12090,39292 Mercer Avenue,Leary,GA,31.4847831,-84.51716583
Propane,https://www.familydollar.com/locations/ga/leary/32090/,FAMILY DOLLAR #12090,39292 Mercer Avenue,Leary,GA,31.4847831,-84.51716583
Tobaco,https://www.familydollar.com/locations/ga/leesburg/30790/,FAMILY DOLLAR #10790,1513 Us Highway 19 South,Leesburg,GA,31.635086,-84.175616
Adult Beverage,https://www.familydollar.com/locations/ga/leesburg/30790/,FAMILY DOLLAR #10790,1513 Us Highway 19 South,Leesburg,GA,31.635086,-84.175616
Tobaco,https://www.familydollar.com/locations/ga/leesburg/26065/,FAMILY DOLLAR #6065,224 Walnut Ave S,Leesburg,GA,31.723567,-84.172719
Adult Beverage,https://www.familydollar.com/locations/ga/leesburg/26065/,FAMILY DOLLAR #6065,224 Walnut Ave S,Leesburg,GA,31.723567,-84.172719
Tobaco,https://www.familydollar.com/locations/ga/lincolnton/23407/,FAMILY DOLLAR #3407,192 Elm St,Lincolnton,GA,33.788126,-82.476676
Adult Beverage,https://www.familydollar.com/locations/ga/lincolnton/23407/,FAMILY DOLLAR #3407,192 Elm St,Lincolnton,GA,33.788126,-82.476676
Tobaco,https://www.familydollar.com/locations/ga/lindale/20660/,FAMILY DOLLAR #660,85 Park Avenue,Lindale,GA,34.18743081,-85.1744235
Adult Beverage,https://www.familydollar.com/locations/ga/lindale/20660/,FAMILY DOLLAR #660,85 Park Avenue,Lindale,GA,34.18743081,-85.1744235
Tobaco,https://www.familydollar.com/locations/ga/lithia-springs/23408/,FAMILY DOLLAR #3408,3750 Veterans Memorial Hwy,Lithia Springs,GA,33.793281,-84.663831
Adult Beverage,https://www.familydollar.com/locations/ga/lithia-springs/23408/,FAMILY DOLLAR #3408,3750 Veterans Memorial Hwy,Lithia Springs,GA,33.793281,-84.663831
Tobaco,https://www.familydollar.com/locations/ga/lithia-springs/28652/,FAMILY DOLLAR #8652,2682 Lee Road,Lithia Springs,GA,33.733226,-84.667506
Adult Beverage,https://www.familydollar.com/locations/ga/lithia-springs/28652/,FAMILY DOLLAR #8652,2682 Lee Road,Lithia Springs,GA,33.733226,-84.667506
Tobaco,https://www.familydollar.com/locations/ga/lithonia/31616/,FAMILY DOLLAR #11616,7042 Covington Hwy,Lithonia,GA,33.71703956,-84.1316263
Adult Beverage,https://www.familydollar.com/locations/ga/lithonia/31616/,FAMILY DOLLAR #11616,7042 Covington Hwy,Lithonia,GA,33.71703956,-84.1316263
Tobaco,https://www.familydollar.com/locations/ga/lithonia/20470/,FAMILY DOLLAR #470,6871 Main Street,Lithonia,GA,33.709445,-84.109248
Adult Beverage,https://www.familydollar.com/locations/ga/lithonia/20470/,FAMILY DOLLAR #470,6871 Main Street,Lithonia,GA,33.709445,-84.109248
Tobaco,https://www.familydollar.com/locations/ga/lithonia/27210/,FAMILY DOLLAR #7210,7960 Rockbridge Rd,Lithonia,GA,33.774804,-84.077389
Adult Beverage,https://www.familydollar.com/locations/ga/lithonia/27210/,FAMILY DOLLAR #7210,7960 Rockbridge Rd,Lithonia,GA,33.774804,-84.077389
Tobaco,https://www.familydollar.com/locations/ga/lithonia/27339/,FAMILY DOLLAR #7339,3635 Panola Road,Lithonia,GA,33.678947,-84.178474
Adult Beverage,https://www.familydollar.com/locations/ga/lithonia/27339/,FAMILY DOLLAR #7339,3635 Panola Road,Lithonia,GA,33.678947,-84.178474
Tobaco,https://www.familydollar.com/locations/ga/lithonia/27600/,FAMILY DOLLAR #7600,2627 Panola Road,Lithonia,GA,33.71200716,-84.16718603
Adult Beverage,https://www.familydollar.com/locations/ga/lithonia/27600/,FAMILY DOLLAR #7600,2627 Panola Road,Lithonia,GA,33.71200716,-84.16718603
Tobaco,https://www.familydollar.com/locations/ga/lithonia/28805/,FAMILY DOLLAR #8805,1800 Panola Rd.,Lithonia,GA,33.738696,-84.168535
Adult Beverage,https://www.familydollar.com/locations/ga/lithonia/28805/,FAMILY DOLLAR #8805,1800 Panola Rd.,Lithonia,GA,33.738696,-84.168535
Propane,https://www.familydollar.com/locations/ga/lithonia/28805/,FAMILY DOLLAR #8805,1800 Panola Rd.,Lithonia,GA,33.738696,-84.168535
Tobaco,https://www.familydollar.com/locations/ga/lovejoy/28515/,FAMILY DOLLAR #8515,11108 Tara Blvd.,Lovejoy,GA,33.452444,-84.325373
Adult Beverage,https://www.familydollar.com/locations/ga/lovejoy/28515/,FAMILY DOLLAR #8515,11108 Tara Blvd.,Lovejoy,GA,33.452444,-84.325373
Tobaco,https://www.familydollar.com/locations/ga/ludowici/29186/,FAMILY DOLLAR #9186,12 E Cypress St,Ludowici,GA,31.71371984,-81.7436118
Adult Beverage,https://www.familydollar.com/locations/ga/ludowici/29186/,FAMILY DOLLAR #9186,12 E Cypress St,Ludowici,GA,31.71371984,-81.7436118
Tobaco,https://www.familydollar.com/locations/ga/lyons/23073/,FAMILY DOLLAR #3073,170 S Victory Dr,Lyons,GA,32.199834,-82.327796
Tobaco,https://www.familydollar.com/locations/ga/mableton/30326/,FAMILY DOLLAR #10326,850 Veterans Memorial Hwy Sw,Mableton,GA,33.80592514,-84.53005519
Tobaco,https://www.familydollar.com/locations/ga/mableton/20364/,FAMILY DOLLAR #364,1255 Veterans Mem Hwy Sw #16,Mableton,GA,33.815934,-84.5897
Tobaco,https://www.familydollar.com/locations/ga/mableton/28456/,FAMILY DOLLAR #8456,6200 Mableton Pkwy Sw Suite 11,Mableton,GA,33.801862,-84.568646
Adult Beverage,https://www.familydollar.com/locations/ga/mableton/28456/,FAMILY DOLLAR #8456,6200 Mableton Pkwy Sw Suite 11,Mableton,GA,33.801862,-84.568646
Tobaco,https://www.familydollar.com/locations/ga/macon/30190/,FAMILY DOLLAR #10190,800 Pio Nono Avenue,Macon,GA,32.839585,-83.661419
Tobaco,https://www.familydollar.com/locations/ga/macon/30678/,FAMILY DOLLAR #10678,2584 Rocky Creek Road,Macon,GA,32.786409,-83.706573
Adult Beverage,https://www.familydollar.com/locations/ga/macon/30678/,FAMILY DOLLAR #10678,2584 Rocky Creek Road,Macon,GA,32.786409,-83.706573
Tobaco,https://www.familydollar.com/locations/ga/macon/30791/,FAMILY DOLLAR #10791,3190 Mercer University Drive,Macon,GA,32.82390219,-83.68048172
Adult Beverage,https://www.familydollar.com/locations/ga/macon/30791/,FAMILY DOLLAR #10791,3190 Mercer University Drive,Macon,GA,32.82390219,-83.68048172
Tobaco,https://www.familydollar.com/locations/ga/macon/32176/,FAMILY DOLLAR #12176,4007 Northside Dr,Macon,GA,32.90041,-83.704185
Adult Beverage,https://www.familydollar.com/locations/ga/macon/32176/,FAMILY DOLLAR #12176,4007 Northside Dr,Macon,GA,32.90041,-83.704185
Tobaco,https://www.familydollar.com/locations/ga/macon/20227/,FAMILY DOLLAR #227,2035 Shurling Drive,Macon,GA,32.863194,-83.58935
Adult Beverage,https://www.familydollar.com/locations/ga/macon/20227/,FAMILY DOLLAR #227,2035 Shurling Drive,Macon,GA,32.863194,-83.58935
Tobaco,https://www.familydollar.com/locations/ga/macon/20253/,FAMILY DOLLAR #253,951 Hillcrest Blvd,Macon,GA,32.838141,-83.676243
Tobaco,https://www.familydollar.com/locations/ga/macon/20382/,FAMILY DOLLAR #382,1415 Rocky Creek Rd,Macon,GA,32.789576,-83.669451
Tobaco,https://www.familydollar.com/locations/ga/macon/24027/,FAMILY DOLLAR #4027,4625 Mercer University Drive,Macon,GA,32.82702,-83.717
Adult Beverage,https://www.familydollar.com/locations/ga/macon/24027/,FAMILY DOLLAR #4027,4625 Mercer University Drive,Macon,GA,32.82702,-83.717
Tobaco,https://www.familydollar.com/locations/ga/macon/24829/,FAMILY DOLLAR #4829,160 Emery Hwy,Macon,GA,32.84880987,-83.62378298
Tobaco,https://www.familydollar.com/locations/ga/macon/25252/,FAMILY DOLLAR #5252,2529 Houston Ave,Macon,GA,32.814399,-83.645336
Adult Beverage,https://www.familydollar.com/locations/ga/macon/25252/,FAMILY DOLLAR #5252,2529 Houston Ave,Macon,GA,32.814399,-83.645336
Tobaco,https://www.familydollar.com/locations/ga/macon/25426/,FAMILY DOLLAR #5426,2495 Pio Nono Ave,Macon,GA,32.815628,-83.66337
Tobaco,https://www.familydollar.com/locations/ga/macon/25728/,FAMILY DOLLAR #5728,4925 Bloomfield Rd,Macon,GA,32.805743,-83.708424
Adult Beverage,https://www.familydollar.com/locations/ga/macon/25728/,FAMILY DOLLAR #5728,4925 Bloomfield Rd,Macon,GA,32.805743,-83.708424
Tobaco,https://www.familydollar.com/locations/ga/macon/26310/,FAMILY DOLLAR #6310,3656 Jeffersonville Rd,Macon,GA,32.84165,-83.5529
Adult Beverage,https://www.familydollar.com/locations/ga/macon/26310/,FAMILY DOLLAR #6310,3656 Jeffersonville Rd,Macon,GA,32.84165,-83.5529
Tobaco,https://www.familydollar.com/locations/ga/macon/26432/,FAMILY DOLLAR #6432,5615 Houston Rd,Macon,GA,32.747965,-83.672942
Tobaco,https://www.familydollar.com/locations/ga/macon/28676/,FAMILY DOLLAR #8676,3600 Napier Avenue,Macon,GA,32.84782,-83.688546
Adult Beverage,https://www.familydollar.com/locations/ga/macon/28676/,FAMILY DOLLAR #8676,3600 Napier Avenue,Macon,GA,32.84782,-83.688546
Tobaco,https://www.familydollar.com/locations/ga/macon/29420/,FAMILY DOLLAR #9420,3002 Shurling Drive,Macon,GA,32.865,-83.571195
Adult Beverage,https://www.familydollar.com/locations/ga/macon/29420/,FAMILY DOLLAR #9420,3002 Shurling Drive,Macon,GA,32.865,-83.571195
Tobaco,https://www.familydollar.com/locations/ga/macon/29431/,FAMILY DOLLAR #9431,3567 Houston Avenue,Macon,GA,32.799817,-83.652407
Adult Beverage,https://www.familydollar.com/locations/ga/macon/29431/,FAMILY DOLLAR #9431,3567 Houston Avenue,Macon,GA,32.799817,-83.652407
Tobaco,https://www.familydollar.com/locations/ga/marietta/30056/,FAMILY DOLLAR #10056,1308 Powder Springs Rd Sw,Marietta,GA,33.920998,-84.5804
Adult Beverage,https://www.familydollar.com/locations/ga/marietta/30056/,FAMILY DOLLAR #10056,1308 Powder Springs Rd Sw,Marietta,GA,33.920998,-84.5804
Tobaco,https://www.familydollar.com/locations/ga/marietta/30267/,FAMILY DOLLAR #10267,567 Cobb Parkway N,Marietta,GA,33.96520993,-84.53435383
Adult Beverage,https://www.familydollar.com/locations/ga/marietta/30267/,FAMILY DOLLAR #10267,567 Cobb Parkway N,Marietta,GA,33.96520993,-84.53435383
Propane,https://www.familydollar.com/locations/ga/marietta/30267/,FAMILY DOLLAR #10267,567 Cobb Parkway N,Marietta,GA,33.96520993,-84.53435383
Tobaco,https://www.familydollar.com/locations/ga/marietta/22341/,FAMILY DOLLAR #2341,728 Sandtown Rd,Marietta,GA,33.934514,-84.556458
Tobaco,https://www.familydollar.com/locations/ga/marietta/20363/,FAMILY DOLLAR #363,619 S Marietta Pkwy,Marietta,GA,33.944732,-84.533261
Tobaco,https://www.familydollar.com/locations/ga/marietta/29106/,FAMILY DOLLAR #9106,2051 Austell Road Sw,Marietta,GA,33.903085,-84.566552
Adult Beverage,https://www.familydollar.com/locations/ga/marietta/29106/,FAMILY DOLLAR #9106,2051 Austell Road Sw,Marietta,GA,33.903085,-84.566552
Propane,https://www.familydollar.com/locations/ga/marietta/29106/,FAMILY DOLLAR #9106,2051 Austell Road Sw,Marietta,GA,33.903085,-84.566552
Tobaco,https://www.familydollar.com/locations/ga/martinez/24347/,FAMILY DOLLAR #4347,357 S Belair Rd,Martinez,GA,33.487428,-82.136684
Tobaco,https://www.familydollar.com/locations/ga/mcdonough/28965/,FAMILY DOLLAR #8965,710 Highway 42 S,McDonough,GA,33.4269075,-84.14492657
Adult Beverage,https://www.familydollar.com/locations/ga/mcdonough/28965/,FAMILY DOLLAR #8965,710 Highway 42 S,McDonough,GA,33.4269075,-84.14492657
Propane,https://www.familydollar.com/locations/ga/mcdonough/28965/,FAMILY DOLLAR #8965,710 Highway 42 S,McDonough,GA,33.4269075,-84.14492657
Tobaco,https://www.familydollar.com/locations/ga/mcdonough/29135/,FAMILY DOLLAR #9135,398 Jonesboro Rd,McDonough,GA,33.457579,-84.172518
Adult Beverage,https://www.familydollar.com/locations/ga/mcdonough/29135/,FAMILY DOLLAR #9135,398 Jonesboro Rd,McDonough,GA,33.457579,-84.172518
Tobaco,https://www.familydollar.com/locations/ga/metter/21227/,FAMILY DOLLAR #1227,240 Se Broad St,Metter,GA,32.396882,-82.059239
Tobaco,https://www.familydollar.com/locations/ga/midland/32470/,FAMILY DOLLAR #12470,7900 Beaver Run Road,Midland,GA,32.53727,-84.8539
Tobaco,https://www.familydollar.com/locations/ga/midway/28985/,FAMILY DOLLAR #8985,125 Butler Street,Midway,GA,31.801186,-81.418446
Adult Beverage,https://www.familydollar.com/locations/ga/midway/28985/,FAMILY DOLLAR #8985,125 Butler Street,Midway,GA,31.801186,-81.418446
Tobaco,https://www.familydollar.com/locations/ga/milledgeville/32223/,FAMILY DOLLAR #12223,355 Allen Memorial Dr,Milledgeville,GA,33.05510302,-83.23947
Adult Beverage,https://www.familydollar.com/locations/ga/milledgeville/32223/,FAMILY DOLLAR #12223,355 Allen Memorial Dr,Milledgeville,GA,33.05510302,-83.23947
Propane,https://www.familydollar.com/locations/ga/milledgeville/32223/,FAMILY DOLLAR #12223,355 Allen Memorial Dr,Milledgeville,GA,33.05510302,-83.23947
Tobaco,https://www.familydollar.com/locations/ga/millen/20961/,FAMILY DOLLAR #961,710 E Winthrope Ave,Millen,GA,32.803198,-81.938285
Tobaco,https://www.familydollar.com/locations/ga/monticello/20710/,FAMILY DOLLAR #710,209 East Greene Street,Monticello,GA,33.304411,-83.682075
Adult Beverage,https://www.familydollar.com/locations/ga/monticello/20710/,FAMILY DOLLAR #710,209 East Greene Street,Monticello,GA,33.304411,-83.682075
Propane,https://www.familydollar.com/locations/ga/monticello/20710/,FAMILY DOLLAR #710,209 East Greene Street,Monticello,GA,33.304411,-83.682075
Tobaco,https://www.familydollar.com/locations/ga/morrow/24107/,FAMILY DOLLAR #4107,2350 Lake Harbin Rd,Morrow,GA,33.583426,-84.313644
Adult Beverage,https://www.familydollar.com/locations/ga/morrow/24107/,FAMILY DOLLAR #4107,2350 Lake Harbin Rd,Morrow,GA,33.583426,-84.313644
Propane,https://www.familydollar.com/locations/ga/morrow/24107/,FAMILY DOLLAR #4107,2350 Lake Harbin Rd,Morrow,GA,33.583426,-84.313644
Tobaco,https://www.familydollar.com/locations/ga/morrow/24967/,FAMILY DOLLAR #4967,6715 Merchants Way,Morrow,GA,33.571814,-84.349226
Adult Beverage,https://www.familydollar.com/locations/ga/morrow/24967/,FAMILY DOLLAR #4967,6715 Merchants Way,Morrow,GA,33.571814,-84.349226
Tobaco,https://www.familydollar.com/locations/ga/moultrie/31216/,FAMILY DOLLAR #11216,2795 West Boulevard,Moultrie,GA,31.181613,-83.808343
Adult Beverage,https://www.familydollar.com/locations/ga/moultrie/31216/,FAMILY DOLLAR #11216,2795 West Boulevard,Moultrie,GA,31.181613,-83.808343
Tobaco,https://www.familydollar.com/locations/ga/moultrie/20332/,FAMILY DOLLAR #332,635 1st Ave Se,Moultrie,GA,31.179263,-83.781024
Adult Beverage,https://www.familydollar.com/locations/ga/moultrie/20332/,FAMILY DOLLAR #332,635 1st Ave Se,Moultrie,GA,31.179263,-83.781024
Tobaco,https://www.familydollar.com/locations/ga/nahunta/21733/,FAMILY DOLLAR #1733,104 Bryan Street,Nahunta,GA,31.207156,-81.979822
Adult Beverage,https://www.familydollar.com/locations/ga/nahunta/21733/,FAMILY DOLLAR #1733,104 Bryan Street,Nahunta,GA,31.207156,-81.979822
Tobaco,https://www.familydollar.com/locations/ga/newnan/20318/,FAMILY DOLLAR #318,121 Jefferson St,Newnan,GA,33.381353,-84.795443
Adult Beverage,https://www.familydollar.com/locations/ga/newnan/20318/,FAMILY DOLLAR #318,121 Jefferson St,Newnan,GA,33.381353,-84.795443
Tobaco,https://www.familydollar.com/locations/ga/newnan/24751/,FAMILY DOLLAR #4751,159 Temple Ave Ste A,Newnan,GA,33.383364,-84.813602
Tobaco,https://www.familydollar.com/locations/ga/savannah/20315/,FAMILY DOLLAR #315,702 Wheaton Street,Savannah,GA,32.071457,-81.082943
Adult Beverage,https://www.familydollar.com/locations/ga/savannah/20315/,FAMILY DOLLAR #315,702 Wheaton Street,Savannah,GA,32.071457,-81.082943
Tobaco,https://www.familydollar.com/locations/ga/savannah/28738/,FAMILY DOLLAR #8738,3107 Montgomery Ave,Savannah,GA,32.04991762,-81.1081047
Adult Beverage,https://www.familydollar.com/locations/ga/savannah/28738/,FAMILY DOLLAR #8738,3107 Montgomery Ave,Savannah,GA,32.04991762,-81.1081047
Tobaco,https://www.familydollar.com/locations/ga/savannah/29157/,FAMILY DOLLAR #9157,702 W Oglethorpe Avenue,Savannah,GA,32.07961345,-81.10115409
Tobaco,https://www.familydollar.com/locations/ga/screven/29429/,FAMILY DOLLAR #9429,101 Broadhurst Road,Screven,GA,31.486259,-82.016868
Adult Beverage,https://www.familydollar.com/locations/ga/screven/29429/,FAMILY DOLLAR #9429,101 Broadhurst Road,Screven,GA,31.486259,-82.016868
Tobaco,https://www.familydollar.com/locations/ga/smyrna/23075/,FAMILY DOLLAR #3075,3791 S Cobb Dr Se Ste H,Smyrna,GA,33.861594,-84.517291
Tobaco,https://www.familydollar.com/locations/ga/smyrna/23143/,FAMILY DOLLAR #3143,2500 Cobb Dr Se Ste F,Smyrna,GA,33.89135,-84.539459
Tobaco,https://www.familydollar.com/locations/ga/smyrna/27527/,FAMILY DOLLAR #7527,2393 Spring Rd Se,Smyrna,GA,33.88402,-84.48454
Adult Beverage,https://www.familydollar.com/locations/ga/smyrna/27527/,FAMILY DOLLAR #7527,2393 Spring Rd Se,Smyrna,GA,33.88402,-84.48454
Tobaco,https://www.familydollar.com/locations/ga/snellville/31178/,FAMILY DOLLAR #11178,3193 Stone Mountain Highway,Snellville,GA,33.85210891,-84.04385708
Adult Beverage,https://www.familydollar.com/locations/ga/snellville/31178/,FAMILY DOLLAR #11178,3193 Stone Mountain Highway,Snellville,GA,33.85210891,-84.04385708
Tobaco,https://www.familydollar.com/locations/ga/snellville/32308/,FAMILY DOLLAR #12308,3295 Hwy 124,Snellville,GA,33.8134012,-84.04238703
Adult Beverage,https://www.familydollar.com/locations/ga/snellville/32308/,FAMILY DOLLAR #12308,3295 Hwy 124,Snellville,GA,33.8134012,-84.04238703
Tobaco,https://www.familydollar.com/locations/ga/sparta/21936/,FAMILY DOLLAR #1936,602 Spring St,Sparta,GA,33.274905,-82.974882
Adult Beverage,https://www.familydollar.com/locations/ga/sparta/21936/,FAMILY DOLLAR #1936,602 Spring St,Sparta,GA,33.274905,-82.974882
Tobaco,https://www.familydollar.com/locations/ga/springfield/23064/,FAMILY DOLLAR #3064,809 S Laurel St,Springfield,GA,32.361344,-81.305198
Adult Beverage,https://www.familydollar.com/locations/ga/springfield/23064/,FAMILY DOLLAR #3064,809 S Laurel St,Springfield,GA,32.361344,-81.305198
Propane,https://www.familydollar.com/locations/ga/springfield/23064/,FAMILY DOLLAR #3064,809 S Laurel St,Springfield,GA,32.361344,-81.305198
Fresh Produce,https://www.familydollar.com/locations/ga/springfield/23064/,FAMILY DOLLAR #3064,809 S Laurel St,Springfield,GA,32.361344,-81.305198
Tobaco,https://www.familydollar.com/locations/ga/statesboro/30436/,FAMILY DOLLAR #10436,20 Veterans Plaza,Statesboro,GA,32.417135,-81.802364
Adult Beverage,https://www.familydollar.com/locations/ga/statesboro/30436/,FAMILY DOLLAR #10436,20 Veterans Plaza,Statesboro,GA,32.417135,-81.802364
Propane,https://www.familydollar.com/locations/ga/statesboro/30436/,FAMILY DOLLAR #10436,20 Veterans Plaza,Statesboro,GA,32.417135,-81.802364
Fresh Produce,https://www.familydollar.com/locations/ga/statesboro/30436/,FAMILY DOLLAR #10436,20 Veterans Plaza,Statesboro,GA,32.417135,-81.802364
Tobaco,https://www.familydollar.com/locations/ga/statesboro/20383/,FAMILY DOLLAR #383,2538 Northside Drive W,Statesboro,GA,32.455868,-81.78768
Adult Beverage,https://www.familydollar.com/locations/ga/statesboro/20383/,FAMILY DOLLAR #383,2538 Northside Drive W,Statesboro,GA,32.455868,-81.78768
Tobaco,https://www.familydollar.com/locations/ga/stonecrest/32488/,FAMILY DOLLAR #12488,3332 Snapfinger Road,Stonecrest,GA,33.6848,-84.19905
Tobaco,https://www.familydollar.com/locations/ga/stone-mountain/30681/,FAMILY DOLLAR #10681,4615 Rockbridge Road,Stone Mountain,GA,33.785969,-84.204799
Adult Beverage,https://www.familydollar.com/locations/ga/stone-mountain/30681/,FAMILY DOLLAR #10681,4615 Rockbridge Road,Stone Mountain,GA,33.785969,-84.204799
Tobaco,https://www.familydollar.com/locations/ga/stone-mountain/22602/,FAMILY DOLLAR #2602,4812c Redan Rd,Stone Mountain,GA,33.762958,-84.194867
Tobaco,https://www.familydollar.com/locations/ga/stone-mountain/27203/,FAMILY DOLLAR #7203,7184 Rockbridge Rd,Stone Mountain,GA,33.785826,-84.103736
Tobaco,https://www.familydollar.com/locations/ga/stone-mountain/27459/,FAMILY DOLLAR #7459,6130 Memorial Drive,Stone Mountain,GA,33.805206,-84.18964
Adult Beverage,https://www.familydollar.com/locations/ga/stone-mountain/27459/,FAMILY DOLLAR #7459,6130 Memorial Drive,Stone Mountain,GA,33.805206,-84.18964
Propane,https://www.familydollar.com/locations/ga/stone-mountain/27459/,FAMILY DOLLAR #7459,6130 Memorial Drive,Stone Mountain,GA,33.805206,-84.18964
Tobaco,https://www.familydollar.com/locations/ga/stone-mountain/28168/,FAMILY DOLLAR #8168,4104 Redan Rd,Stone Mountain,GA,33.764813,-84.222033
Tobaco,https://www.familydollar.com/locations/ga/summerville/20178/,FAMILY DOLLAR #178,10205 Commerce Street,Summerville,GA,34.48352,-85.346756
Adult Beverage,https://www.familydollar.com/locations/ga/summerville/20178/,FAMILY DOLLAR #178,10205 Commerce Street,Summerville,GA,34.48352,-85.346756
Tobaco,https://www.familydollar.com/locations/ga/swainsboro/20183/,FAMILY DOLLAR #183,501 South Main St,Swainsboro,GA,32.586308,-82.32191
Tobaco,https://www.familydollar.com/locations/ga/sylvania/20226/,FAMILY DOLLAR #226,311 W Ogeechee St,Sylvania,GA,32.749018,-81.638505
Adult Beverage,https://www.familydollar.com/locations/ga/sylvania/20226/,FAMILY DOLLAR #226,311 W Ogeechee St,Sylvania,GA,32.749018,-81.638505
Tobaco,https://www.familydollar.com/locations/ga/tallapoosa/22053/,FAMILY DOLLAR #2053,6 Robertson Ave,Tallapoosa,GA,33.745035,-85.289519
Adult Beverage,https://www.familydollar.com/locations/ga/tallapoosa/22053/,FAMILY DOLLAR #2053,6 Robertson Ave,Tallapoosa,GA,33.745035,-85.289519
Tobaco,https://www.familydollar.com/locations/ga/thomaston/20324/,FAMILY DOLLAR #324,532 N Center St,Thomaston,GA,32.896675,-84.326538
Adult Beverage,https://www.familydollar.com/locations/ga/thomaston/20324/,FAMILY DOLLAR #324,532 N Center St,Thomaston,GA,32.896675,-84.326538
Tobaco,https://www.familydollar.com/locations/ga/thomasville/26132/,FAMILY DOLLAR #6132,718 W Jackson St,Thomasville,GA,30.829129,-83.986526
Adult Beverage,https://www.familydollar.com/locations/ga/thomasville/26132/,FAMILY DOLLAR #6132,718 W Jackson St,Thomasville,GA,30.829129,-83.986526
Tobaco,https://www.familydollar.com/locations/ga/thomasville/29020/,FAMILY DOLLAR #9020,2004 Smith Avenue,Thomasville,GA,30.83449127,-83.94895975
Adult Beverage,https://www.familydollar.com/locations/ga/thomasville/29020/,FAMILY DOLLAR #9020,2004 Smith Avenue,Thomasville,GA,30.83449127,-83.94895975
Tobaco,https://www.familydollar.com/locations/ga/thomson/20160/,FAMILY DOLLAR #160,675 Main St,Thomson,GA,33.482581,-82.506829
Tobaco,https://www.familydollar.com/locations/ga/thomson/23694/,FAMILY DOLLAR #3694,324 W Hill St,Thomson,GA,33.462085,-82.506761
Tobaco,https://www.familydollar.com/locations/ga/tifton/20384/,FAMILY DOLLAR #384,614 Love Ave,Tifton,GA,31.458946,-83.508485
Tobaco,https://www.familydollar.com/locations/ga/tifton/25729/,FAMILY DOLLAR #5729,409 7th St W,Tifton,GA,31.451825,-83.5189
Adult Beverage,https://www.familydollar.com/locations/ga/tifton/25729/,FAMILY DOLLAR #5729,409 7th St W,Tifton,GA,31.451825,-83.5189
Tobaco,https://www.familydollar.com/locations/ga/toccoa/20107/,FAMILY DOLLAR #107,35 Glendale Drive,Toccoa,GA,34.573892,-83.31098
Tobaco,https://www.familydollar.com/locations/ga/tucker/22394/,FAMILY DOLLAR #2394,3201 Tucker Norcross Rd Ste B2,Tucker,GA,33.88413,-84.21911
Tobaco,https://www.familydollar.com/locations/ga/tucker/25607/,FAMILY DOLLAR #5607,3855 Lawrenceville Hwy,Tucker,GA,33.848111,-84.224123
Tobaco,https://www.familydollar.com/locations/ga/union-city/31580/,FAMILY DOLLAR #11580,3985 Flat Shoals Road,Union City,GA,33.58770628,-84.51848225
Adult Beverage,https://www.familydollar.com/locations/ga/union-city/31580/,FAMILY DOLLAR #11580,3985 Flat Shoals Road,Union City,GA,33.58770628,-84.51848225
Tobaco,https://www.familydollar.com/locations/ga/union-city/25868/,FAMILY DOLLAR #5868,4960 Roosevelt Hwy,Union City,GA,33.595413,-84.549133
Adult Beverage,https://www.familydollar.com/locations/ga/union-city/25868/,FAMILY DOLLAR #5868,4960 Roosevelt Hwy,Union City,GA,33.595413,-84.549133
Propane,https://www.familydollar.com/locations/ga/union-city/25868/,FAMILY DOLLAR #5868,4960 Roosevelt Hwy,Union City,GA,33.595413,-84.549133
Tobaco,https://www.familydollar.com/locations/ga/valdosta/30742/,FAMILY DOLLAR #10742,3820 Inner Perimeter Rd,Valdosta,GA,30.882082,-83.266597
Adult Beverage,https://www.familydollar.com/locations/ga/valdosta/30742/,FAMILY DOLLAR #10742,3820 Inner Perimeter Rd,Valdosta,GA,30.882082,-83.266597
Tobaco,https://www.familydollar.com/locations/ga/valdosta/20420/,FAMILY DOLLAR #420,1905 North Ashley Street,Valdosta,GA,30.856118,-83.28022
Adult Beverage,https://www.familydollar.com/locations/ga/valdosta/20420/,FAMILY DOLLAR #420,1905 North Ashley Street,Valdosta,GA,30.856118,-83.28022
Tobaco,https://www.familydollar.com/locations/ga/valdosta/25800/,FAMILY DOLLAR #5800,512 E Central Ave,Valdosta,GA,30.833889,-83.272303
Adult Beverage,https://www.familydollar.com/locations/ga/valdosta/25800/,FAMILY DOLLAR #5800,512 E Central Ave,Valdosta,GA,30.833889,-83.272303
Tobaco,https://www.familydollar.com/locations/ga/valdosta/28389/,FAMILY DOLLAR #8389,964 N. St. Augustine Rd,Valdosta,GA,30.83709,-83.318022
Tobaco,https://www.familydollar.com/locations/ga/vidalia/20241/,FAMILY DOLLAR #241,1101h E First St,Vidalia,GA,32.211436,-82.401606
Adult Beverage,https://www.familydollar.com/locations/ga/vidalia/20241/,FAMILY DOLLAR #241,1101h E First St,Vidalia,GA,32.211436,-82.401606
Tobaco,https://www.familydollar.com/locations/ga/vienna/30176/,FAMILY DOLLAR #10176,201 N. 3rd Street,Vienna,GA,32.09305763,-83.7965983
Adult Beverage,https://www.familydollar.com/locations/ga/vienna/30176/,FAMILY DOLLAR #10176,201 N. 3rd Street,Vienna,GA,32.09305763,-83.7965983
Tobaco,https://www.familydollar.com/locations/ga/villa-rica/32190/,FAMILY DOLLAR #12190,9591 Conners Rd,Villa Rica,GA,33.731457,-84.89932
Adult Beverage,https://www.familydollar.com/locations/ga/villa-rica/32190/,FAMILY DOLLAR #12190,9591 Conners Rd,Villa Rica,GA,33.731457,-84.89932
Tobaco,https://www.familydollar.com/locations/ga/villa-rica/20492/,FAMILY DOLLAR #492,451 W Bankhead Hwy,Villa Rica,GA,33.733367,-84.929619
Tobaco,https://www.familydollar.com/locations/ga/wadley/26061/,FAMILY DOLLAR #6061,60 Butts St,Wadley,GA,32.862503,-82.402763
Tobaco,https://www.familydollar.com/locations/ga/warner-robins/20228/,FAMILY DOLLAR #228,562 N Davis Dr,Warner Robins,GA,32.632945,-83.611919
Tobaco,https://www.familydollar.com/locations/ga/warner-robins/23771/,FAMILY DOLLAR #3771,827 N Houston Rd,Warner Robins,GA,32.63395,-83.643081
Tobaco,https://www.familydollar.com/locations/ga/warner-robins/24558/,FAMILY DOLLAR #4558,2030 Watson Boulevard,Warner Robins,GA,32.61893222,-83.65040374
Adult Beverage,https://www.familydollar.com/locations/ga/warner-robins/24558/,FAMILY DOLLAR #4558,2030 Watson Boulevard,Warner Robins,GA,32.61893222,-83.65040374
Tobaco,https://www.familydollar.com/locations/ga/warner-robins/24580/,FAMILY DOLLAR #4580,1000 Russell Pkwy,Warner Robins,GA,32.594397,-83.643045
Adult Beverage,https://www.familydollar.com/locations/ga/warner-robins/24580/,FAMILY DOLLAR #4580,1000 Russell Pkwy,Warner Robins,GA,32.594397,-83.643045
Tobaco,https://www.familydollar.com/locations/ga/warrenton/24293/,FAMILY DOLLAR #4293,1156 Legion Dr,Warrenton,GA,33.401741,-82.667458
Adult Beverage,https://www.familydollar.com/locations/ga/warrenton/24293/,FAMILY DOLLAR #4293,1156 Legion Dr,Warrenton,GA,33.401741,-82.667458
Tobaco,https://www.familydollar.com/locations/ga/watkinsville/28137/,FAMILY DOLLAR #8137,2061 Hog Mountain Road,Watkinsville,GA,33.873749,-83.438825
Tobaco,https://www.familydollar.com/locations/ga/waycross/20694/,FAMILY DOLLAR #694,578 State St,Waycross,GA,31.21847,-82.357752
Tobaco,https://www.familydollar.com/locations/ga/waycross/29115/,FAMILY DOLLAR #9115,2000 South Georgia Parkway Wes,Waycross,GA,31.20947887,-82.38919748
Adult Beverage,https://www.familydollar.com/locations/ga/waycross/29115/,FAMILY DOLLAR #9115,2000 South Georgia Parkway Wes,Waycross,GA,31.20947887,-82.38919748
Tobaco,https://www.familydollar.com/locations/ga/waynesboro/20117/,FAMILY DOLLAR #117,110 E 7th St,Waynesboro,GA,33.09146867,-82.01611454
Adult Beverage,https://www.familydollar.com/locations/ga/waynesboro/20117/,FAMILY DOLLAR #117,110 E 7th St,Waynesboro,GA,33.09146867,-82.01611454
Tobaco,https://www.familydollar.com/locations/ga/winder/20105/,FAMILY DOLLAR #105,208 N Broad St #G,Winder,GA,33.998932,-83.712805
Tobaco,https://www.familydollar.com/locations/ga/wrightsville/21047/,FAMILY DOLLAR #1047,212 W Trilby St,Wrightsville,GA,32.732077,-82.721924
Adult Beverage,https://www.familydollar.com/locations/ga/wrightsville/21047/,FAMILY DOLLAR #1047,212 W Trilby St,Wrightsville,GA,32.732077,-82.721924
